{
"type": "FeatureCollection",
"name": "sudbury_boundary",
"crs": { "type": "name", "properties": { "name": "urn:ogc:def:crs:OGC:1.3:CRS84" } },
"features": [
{"type":"Feature","properties":{"id":2110,"PRUID":"35","PRNAME":"Ontario","CDUID":"3553","CDNAME":"Greater Sudbury / Grand Sudbury","CDTYPE":"CDR","CSDUID":"3553005","CSDNAME":"Greater Sudbury / Grand Sudbury","CSDTYPE":"CV"},"geometry":{"type":"MultiPolygon","coordinates":[[[[-80.817922270291561,46.97275970171227],[-80.818486120615162,46.948400366204609],[-80.818508076321393,46.947502159325943],[-80.818642831935819,46.94198846089067],[-80.818654619223693,46.941506115369691],[-80.819970631268262,46.887591516169984],[-80.808848115423686,46.887371870092963],[-80.808075169435924,46.887356562569238],[-80.80043367475443,46.887204830210173],[-80.798853601455548,46.887173362442603],[-80.786483212198604,46.8869261820359],[-80.786458547298565,46.886925689676154],[-80.786058326673967,46.886917654885437],[-80.785499531489407,46.886906446196939],[-80.764633183412883,46.886492719113427],[-80.732612332112822,46.885830424158009],[-80.726462370985288,46.885703362135196],[-80.701305438130788,46.885179247759346],[-80.689414600679626,46.884929148220351],[-80.682186080051807,46.884776367241543],[-80.676544406400907,46.884656743779558],[-80.674605174217831,46.884615539915671],[-80.664150195496546,46.884392687223169],[-80.656159040437743,46.884221579589436],[-80.652056979463396,46.884133471661272],[-80.64922503956754,46.884072533367686],[-80.62183196810804,46.883478692664411],[-80.620336206407387,46.883446016241862],[-80.611896259682752,46.883261287330818],[-80.610355356442327,46.883227469000246],[-80.595119394332414,46.882891771553872],[-80.594250372310356,46.882872546727391],[-80.566753542128637,46.88226010367044],[-80.564085281861566,46.882191655572278],[-80.564286969593553,46.876738433564206],[-80.564450979062812,46.868122290684042],[-80.564504854060246,46.865290430683785],[-80.564569292851743,46.861903824147092],[-80.564699377670351,46.855066070770739],[-80.565004744726494,46.839004670151049],[-80.565341439923344,46.821282835618156],[-80.565494077204448,46.813246102723333],[-80.565617814679243,46.806727466761799],[-80.56568298750058,46.803293980061341],[-80.566528240218702,46.758716493906725],[-80.566566027223843,46.75672155569675],[-80.566569781519291,46.756461074467545],[-80.566569754417486,46.756460890019639],[-80.565241691749009,46.734934268742897],[-80.565241160061973,46.73492535566389],[-80.563779031298978,46.711203558857008],[-80.560653644448436,46.711189796973684],[-80.560525932260404,46.711189225608905],[-80.555821322437723,46.711168326156027],[-80.555378005139332,46.711166342686539],[-80.553946446037386,46.71115992257571],[-80.553216670873709,46.711156655015927],[-80.54881531942091,46.711156444688164],[-80.556937501049404,46.688394682785493],[-80.565076925609802,46.688215242249676],[-80.564974532599791,46.68780737807031],[-80.564210701414964,46.68753335444454],[-80.564326149891485,46.685578739326381],[-80.564455087755036,46.683395979783903],[-80.565594920712414,46.683429069981493],[-80.566161576448266,46.664323921383051],[-80.566097269554973,46.662893388858556],[-80.566096854275543,46.662884466931729],[-80.565953945514124,46.659708140486408],[-80.565949358917067,46.659606041451568],[-80.565810873166043,46.656527954466732],[-80.565786097007717,46.655977308764633],[-80.56544050135318,46.648293015520473],[-80.565404859084794,46.647500104868854],[-80.565150606909228,46.641845204459251],[-80.564995720111355,46.638399112567072],[-80.564933854021675,46.637022737604177],[-80.564779589804218,46.633590441777194],[-80.564773974731793,46.633465392851399],[-80.564685814873656,46.631503976129324],[-80.564643392233862,46.630142404327657],[-80.564627621359065,46.628923538619027],[-80.56457074183453,46.624525591273056],[-80.565251786830842,46.62454215574202],[-80.56749301636448,46.624596566514178],[-80.589944850520752,46.624589106094376],[-80.613169416096952,46.624518500944632],[-80.616956244676572,46.624546612295866],[-80.631113547890735,46.62468492226909],[-80.644902066932005,46.624726300035356],[-80.659547252312365,46.624731132059757],[-80.659927898260364,46.624731756345362],[-80.659941846316102,46.62474631503936],[-80.65997505932441,46.624821504425299],[-80.660006455373193,46.624872507253464],[-80.66001518011538,46.624890871594452],[-80.660019186724099,46.624899325081707],[-80.664724196527956,46.624881172939055],[-80.674315526940006,46.624845216024852],[-80.679288874094212,46.624826157468199],[-80.694027854871436,46.624768139673485],[-80.693919419004104,46.612130399008102],[-80.693881412417156,46.607699578035486],[-80.693804805756926,46.598766750560678],[-80.693672355712948,46.589624208699107],[-80.693670036495632,46.589463869923087],[-80.693665856912602,46.589175192589025],[-80.693635999291814,46.587113553561736],[-80.693403240597618,46.571034709414945],[-80.693362139087355,46.568193817580237],[-80.693322551385364,46.565460078340017],[-80.693296417455443,46.563653354716521],[-80.693289456465052,46.563171563307719],[-80.693136185671733,46.552681221069761],[-80.692864747262377,46.536115001233455],[-80.6928533238667,46.535159794124176],[-80.69283866049075,46.534255328322956],[-80.69280761538819,46.532342610699352],[-80.692771295918632,46.530103547513711],[-80.692769941147191,46.530020312242506],[-80.692754841182108,46.529089483422737],[-80.692743261794988,46.528375688180269],[-80.692754296510174,46.527497107634225],[-80.692750753572227,46.527078128063806],[-80.692713066412395,46.5226313774712],[-80.692686895512892,46.519542967440856],[-80.692657970118745,46.516128512941847],[-80.69263299405327,46.51582799671187],[-80.692542344895898,46.511539360186923],[-80.692494982703039,46.500092014960153],[-80.692481860706323,46.496926030485874],[-80.692482317058662,46.496467551767665],[-80.692483553031252,46.49204027673818],[-80.692486303735436,46.489740583098623],[-80.692489906831938,46.486732046461135],[-80.692499776188512,46.478423839703133],[-80.69250013527251,46.478053964324573],[-80.692592389723814,46.473526708991393],[-80.692661877558436,46.470116076969106],[-80.692899967206742,46.458424553606093],[-80.693097339650322,46.458423580285007],[-80.69300110701684,46.45613098544915],[-80.692746348980961,46.450063026729843],[-80.692746822106216,46.449930658307522],[-80.692755961779994,46.447847112286254],[-80.69277130349144,46.443967394084581],[-80.69273265942202,46.434232716784287],[-80.692739831170513,46.430489363549043],[-80.692758796457966,46.420554003907199],[-80.69276699732427,46.416267497968384],[-80.692720356036148,46.40156695020265],[-80.692595567410493,46.362160959485699],[-80.692959724098785,46.360990672335944],[-80.700290043296121,46.361022830593122],[-80.710036056486203,46.361129207875585],[-80.738694110823701,46.361436031268411],[-80.755875863538023,46.361615669280589],[-80.756771664606006,46.36163569127222],[-80.75783315193479,46.361659732847947],[-80.765776952789636,46.361812336223615],[-80.766672445301992,46.361822671747667],[-80.772901263959966,46.361891721478671],[-80.788679214819524,46.362052709713282],[-80.800519578446909,46.362180988895304],[-80.801095879951021,46.362185496769229],[-80.801522187270123,46.362188839181151],[-80.803832308609913,46.362206853696279],[-80.804912171898437,46.36221348137466],[-80.804912697294753,46.362213467843496],[-80.809976091712301,46.362197808027553],[-80.821859921202105,46.361827296045696],[-80.823589722725615,46.361774881866772],[-80.824100537241151,46.36171162145083],[-80.826798871329117,46.36166830861108],[-80.829472644958045,46.361757385885305],[-80.868519649155871,46.36226555200205],[-80.871065323427317,46.362298095517417],[-80.873266589457486,46.362357691840586],[-80.880345332089462,46.362736079414553],[-80.902262005655146,46.362793672488976],[-80.905397700896444,46.362841720283498],[-80.908632655239813,46.362891166724353],[-80.912352211126858,46.362947867756652],[-80.917852317522502,46.363013732340207],[-80.918324303969754,46.362978962664656],[-80.918549686698526,46.362980155762109],[-80.919900577089336,46.362987262530559],[-80.927143526463169,46.363024967516942],[-80.930186917134989,46.363040628232049],[-80.930187955302671,46.363040649831618],[-80.933586845753169,46.363038480207265],[-80.933660275363138,46.363039048429833],[-80.947083667350952,46.363138708178894],[-80.948578214110938,46.363145348417447],[-80.969629254904973,46.363243968388552],[-80.985363889512641,46.363358400915558],[-80.986215068303864,46.363364537904971],[-80.987478956438437,46.363374123274447],[-80.992715344066809,46.363413703713086],[-80.995476107720023,46.363434461075165],[-81.000000540947781,46.36346849976713],[-81.000492848811177,46.363472194612235],[-81.006779155180311,46.363518540515336],[-81.006808151599259,46.363518518938868],[-81.020415700983676,46.363503806361869],[-81.020622996872135,46.363510821382654],[-81.046298358785393,46.364374931155531],[-81.046124039995448,46.35752210312414],[-81.046100784745249,46.356606774017052],[-81.046040003031166,46.354217724552399],[-81.045897840947958,46.3486256679939],[-81.045881568658203,46.347985562622696],[-81.047674929129727,46.347989079888741],[-81.064827000609469,46.348021007537874],[-81.06641448974851,46.348023801419778],[-81.0736853904979,46.347807787874594],[-81.079647341207078,46.348037256301808],[-81.082237152170251,46.348136806319879],[-81.082183914154982,46.349037313891444],[-81.082052709723811,46.355760382184187],[-81.07725245581058,46.35561296707597],[-81.077672378578569,46.363604254332486],[-81.088348781701157,46.363662137013414],[-81.088759893605371,46.363664406313482],[-81.094940517653797,46.363689146088653],[-81.09986013127677,46.360534818979822],[-81.103669900191633,46.358244288187045],[-81.109444887203196,46.355043874904965],[-81.11602690935409,46.351837078107827],[-81.118917807935318,46.350773272395799],[-81.121508589091874,46.349819782127973],[-81.126378626451526,46.348795925167146],[-81.13119582276164,46.34850182566894],[-81.132193838795132,46.353343893633379],[-81.132319742698499,46.353960242575752],[-81.136175588104749,46.372645799064621],[-81.136364375304836,46.373754797098407],[-81.13733194573183,46.378487793969796],[-81.137557691704444,46.379591160499686],[-81.137837495151217,46.380782320997263],[-81.137901532746696,46.380989432715708],[-81.141190494158934,46.39616416743025],[-81.141196622945969,46.396202132459678],[-81.142299787353892,46.403027913658605],[-81.142833905247429,46.405783050630077],[-81.14300140514402,46.406815701759626],[-81.143080236933784,46.406660194040676],[-81.143148153639316,46.40655950030964],[-81.143267401130288,46.406492345259139],[-81.143623830938097,46.406615505675077],[-81.144271044459217,46.407236572583173],[-81.144358605827179,46.40729199222335],[-81.144498155417281,46.407307208435419],[-81.144688456868053,46.407186307421398],[-81.14496013606886,46.407064720530094],[-81.14540897723667,46.406840003052558],[-81.14605318615078,46.406705650691194],[-81.146383885787628,46.406596475805799],[-81.146450879581181,46.406513597672436],[-81.146431207176704,46.406305871305925],[-81.146460731531761,46.406101562906755],[-81.146622168752501,46.405992763503207],[-81.147066117559987,46.405893357688292],[-81.147353814297304,46.405881824230505],[-81.147730548330841,46.40597155765078],[-81.147956227195181,46.406113950818202],[-81.148229899263086,46.406334854628547],[-81.148406736905372,46.406395076103962],[-81.148576180662957,46.40641501648507],[-81.148729531105218,46.406296931161371],[-81.148918728095083,46.405941803717724],[-81.149133767575705,46.405853648992185],[-81.149597510778108,46.405828211711153],[-81.150076255766095,46.405882171586789],[-81.150496763751022,46.405784789465123],[-81.150695869489141,46.405298307596318],[-81.151056849446491,46.405042211624746],[-81.152657533390297,46.404616629407656],[-81.157136710740474,46.404373201706726],[-81.161957404682042,46.404754723243414],[-81.164582364736745,46.405561309217099],[-81.165054675349566,46.40586922308831],[-81.165447942223565,46.406022437090634],[-81.165901941523728,46.40610824835116],[-81.1662247723349,46.406098411276758],[-81.16739021871237,46.405964003681746],[-81.168270495505453,46.405832399788757],[-81.169002205462974,46.405675678733672],[-81.170332583138176,46.405600738290048],[-81.170999867199953,46.405335182724372],[-81.171605631117671,46.405241901753001],[-81.172156056477149,46.405058248609734],[-81.17310427487611,46.404942214363345],[-81.174085131121259,46.404669251477607],[-81.175913104999239,46.404582217838815],[-81.176181433818797,46.404434110769735],[-81.176282936856921,46.404144151228238],[-81.176394180887613,46.403965407505105],[-81.176919663121581,46.403575010641035],[-81.178026155850148,46.402959724345521],[-81.178197955603608,46.402878635373902],[-81.178379068344256,46.402815815130054],[-81.178549873118683,46.402749876491413],[-81.178748965656112,46.402707682723268],[-81.178916675992738,46.402706963801243],[-81.179578409885451,46.402790340416509],[-81.179956767023526,46.402830145983096],[-81.180264603747659,46.402798284463742],[-81.180687579701413,46.402704599629736],[-81.181472510224737,46.402431871828114],[-81.1822765667428,46.402289272591524],[-81.182823802698294,46.401966755640892],[-81.183733685722331,46.400865566863111],[-81.18731905317577,46.398200002643001],[-81.193766629057151,46.395917527030036],[-81.199708874248856,46.394317153954162],[-81.204026106742717,46.391563215702597],[-81.206007221650381,46.390657227232637],[-81.208094925178855,46.390664249392586],[-81.208798668774278,46.390792131710349],[-81.209445778606991,46.39098248773778],[-81.209659307344779,46.390871376892392],[-81.209919119826495,46.390856166472645],[-81.210361129691492,46.390912302209543],[-81.212308269436122,46.391416258775308],[-81.216047750758676,46.391810531354501],[-81.221982160633928,46.389429632069437],[-81.225758823688693,46.387914122773338],[-81.226833646097603,46.387482763985652],[-81.235667875055213,46.383872964361636],[-81.24779218233148,46.378519718653315],[-81.250438361097068,46.378059323936348],[-81.253597756199653,46.378427658135784],[-81.26088073241921,46.381575151060801],[-81.264951651250882,46.383565679498133],[-81.270450214749488,46.384839555275455],[-81.270867604049897,46.384936231415715],[-81.275191999378748,46.384920405429433],[-81.279109567663184,46.38471703489023],[-81.282243638478278,46.384554228432528],[-81.287704814061684,46.38323681526802],[-81.291469743785157,46.381845682756669],[-81.293835433240005,46.379303645121695],[-81.296158828508311,46.37793087590817],[-81.299603238500367,46.376697820274011],[-81.302127987310271,46.375587131140293],[-81.302813233913596,46.37481118481557],[-81.304095286620765,46.373165280293279],[-81.304526024511603,46.372050657439267],[-81.30226377837441,46.370300211410424],[-81.303447110571994,46.36695868636064],[-81.30376780478997,46.366207370534894],[-81.304683356725121,46.363646579134844],[-81.305631903816931,46.362141279950599],[-81.306463824587269,46.360769770433947],[-81.307305801313333,46.358698682821903],[-81.308594918474739,46.35516889554426],[-81.307374109023286,46.353961139753615],[-81.306392663404054,46.352944196070993],[-81.305996745730155,46.352175098298403],[-81.306749435126036,46.351469891114576],[-81.309237449942401,46.349983428353411],[-81.313402083975291,46.349000195891222],[-81.315714809600649,46.347650563630872],[-81.316864925416283,46.34607777392992],[-81.316594075429023,46.342420913481092],[-81.318225273983799,46.34013086453421],[-81.31905083849324,46.338307259762935],[-81.320992177992466,46.337464143476424],[-81.322848075139675,46.336414296971299],[-81.324151696624995,46.334298048505239],[-81.326062651800768,46.330365190944278],[-81.327414467464905,46.328693950749233],[-81.330425443821213,46.326704980375354],[-81.330847596941041,46.326426090399217],[-81.335335331429405,46.3231341220446],[-81.346091477045277,46.319687720834551],[-81.350596414592303,46.31519796132455],[-81.35006688981629,46.312924607469476],[-81.349798852650949,46.312280642099324],[-81.348632672907627,46.312012515657592],[-81.348367175119279,46.311777161212163],[-81.348385992099693,46.31138080726766],[-81.348090521765869,46.310590574587792],[-81.350523122653826,46.309272778216091],[-81.351206362191107,46.309479301920128],[-81.351193746788468,46.309533398529268],[-81.351259028235319,46.309587199439633],[-81.351311355951225,46.309650015835878],[-81.351402655669006,46.309703706935352],[-81.351533055261939,46.309793303611073],[-81.351689752136508,46.309927812982266],[-81.351833528309982,46.310062400096051],[-81.351925136503809,46.310170109683895],[-81.352016829357964,46.310304807803675],[-81.352108637340606,46.310439493387086],[-81.352147854711617,46.310466419416784],[-81.352219940043639,46.310494594188491],[-81.352238956196274,46.310502100744017],[-81.352369146780916,46.310546707165599],[-81.352499136579269,46.310573304277476],[-81.352824224265689,46.310635312800386],[-81.353136348812754,46.310697419192508],[-81.353435256296379,46.310732409308727],[-81.353682354475836,46.310776715791199],[-81.354071847801265,46.310946864288297],[-81.354247938317087,46.311070829425375],[-81.354651347652762,46.311238950329063],[-81.355110334156635,46.311277671099859],[-81.355624063891781,46.31137523044216],[-81.356067408147226,46.311478953868587],[-81.356346619798884,46.311406216678051],[-81.356740537760075,46.311130466716257],[-81.356869408001742,46.310977070602775],[-81.35698285537265,46.310753634322104],[-81.357488974537105,46.310390149226144],[-81.358086278784086,46.310151914759309],[-81.358327533028387,46.30981327542051],[-81.358253409924359,46.309548919579953],[-81.357137190029732,46.305902319294937],[-81.356115801361824,46.304680502637126],[-81.335811320976617,46.280634175267451],[-81.334088365415724,46.27910040477331],[-81.333302413002514,46.278313967949003],[-81.333292669891705,46.275041187781795],[-81.333269339865367,46.267207902810952],[-81.333251323069177,46.261157479399614],[-81.330371498940281,46.258951218579014],[-81.328978496288144,46.25788395546661],[-81.321590181345471,46.252222065359241],[-81.318907001834063,46.250068054311591],[-81.318883915519748,46.250049529347407],[-81.307538345822522,46.232088718381206],[-81.307412473671349,46.227002947683609],[-81.307227245766882,46.219357741325346],[-81.307203720048534,46.21800831746021],[-81.307133862936752,46.214002345060969],[-81.306949339582943,46.203419426128946],[-81.3069195147811,46.201709948243426],[-81.306906446133254,46.200959029769663],[-81.30689339219812,46.200211129146226],[-81.306885902015978,46.199780373113533],[-81.308020695417099,46.199747622965148],[-81.309750866433973,46.19969764377516],[-81.312479843085271,46.199618768904642],[-81.312810628026014,46.19960919583103],[-81.317519469397951,46.199472867736866],[-81.340620438301329,46.198800558254455],[-81.365345327768139,46.198378268906083],[-81.38559797465075,46.197512013641344],[-81.386625577682736,46.197467934793309],[-81.406853818932447,46.196597995981975],[-81.407849161613711,46.196553958025333],[-81.407608753945283,46.196604849973085],[-81.408043231129994,46.196545366305976],[-81.408477220016636,46.196485901721324],[-81.427496094933232,46.195682491167574],[-81.435948798893051,46.195306265170402],[-81.436082586539129,46.208134343147556],[-81.436095699487169,46.208708650028804],[-81.436121180146898,46.209824761899966],[-81.436791123884163,46.239137021304238],[-81.436857502673917,46.242038628309764],[-81.436961269370499,46.246576237095496],[-81.437040729775859,46.250048783160423],[-81.437040352516107,46.250064218821741],[-81.437018084495861,46.251022751476455],[-81.437006292222208,46.251529527927836],[-81.43701314019313,46.255170575485195],[-81.436868073221206,46.260423931283441],[-81.436434970133973,46.276097371591582],[-81.436364906728826,46.279108197565996],[-81.436350780092639,46.279715665938646],[-81.436404010122033,46.279715848501461],[-81.456185654059794,46.27978149740219],[-81.457143311152592,46.279785365945273],[-81.479237891021711,46.279871905366491],[-81.480469929565359,46.279876562808937],[-81.500000016065812,46.279948362314535],[-81.507680737555646,46.279975470362864],[-81.514302650069098,46.279914816202961],[-81.515973818579582,46.279899458714489],[-81.528664872798842,46.279781674450923],[-81.529548679098639,46.279773402629573],[-81.566255605446386,46.279415769623924],[-81.566424415126306,46.291957942173617],[-81.566482637490068,46.296278061113483],[-81.566494918198131,46.299642488744546],[-81.566522413900614,46.307185411114361],[-81.566553222112233,46.310370068146447],[-81.566564194750342,46.311505055753742],[-81.56658125846576,46.313266862349124],[-81.566548226862082,46.316425085480141],[-81.566536346600245,46.317559292717533],[-81.566531410140954,46.318032045373805],[-81.56717813229686,46.333637756584203],[-81.567002158189212,46.338789132009737],[-81.566788255493691,46.345051980986703],[-81.566918342548121,46.346886865758101],[-81.566913462586768,46.347567727590523],[-81.566921000597517,46.348345582630799],[-81.566939687018063,46.350274037612344],[-81.56694716490118,46.351043961347223],[-81.566980795117658,46.35425047195406],[-81.566999435401996,46.356023878380569],[-81.56705799967574,46.361599027312714],[-81.567106806443064,46.366245935701954],[-81.584909806052508,46.36608317326008],[-81.597481460440378,46.365966169650072],[-81.597371220675853,46.381389166434744],[-81.597339209004033,46.387266903295753],[-81.597330781751083,46.388820284281394],[-81.597315939492304,46.391541928977887],[-81.597291086868154,46.396114135181122],[-81.592355924974612,46.396164983164134],[-81.568117874936746,46.396483728582673],[-81.567003762038439,46.396498247413646],[-81.567040780094899,46.404033152371561],[-81.567059183499921,46.407775692262902],[-81.567591740364961,46.427497293316826],[-81.56768870363635,46.432250293500474],[-81.567693499717919,46.43281474225904],[-81.56786660911456,46.453168005191884],[-81.568095731937731,46.480084493071352],[-81.568227522158537,46.495554660872727],[-81.568243952674024,46.497481277980597],[-81.561224548859627,46.49741973484042],[-81.557192845657767,46.497381560047621],[-81.539601832945706,46.497212929139081],[-81.528154562582017,46.497101344067474],[-81.52761009523779,46.497096004810416],[-81.516677246178176,46.497016680842535],[-81.515482636962346,46.497005583543789],[-81.500335403678903,46.496863429617285],[-81.500000002157378,46.496859240079061],[-81.499999220979973,46.496859228702469],[-81.499435596244609,46.496852216853306],[-81.490877017768881,46.496745089854656],[-81.469677949853917,46.496476390172838],[-81.469265661640335,46.496471116248138],[-81.439153515796178,46.496080177940044],[-81.439085749957741,46.496079268548492],[-81.439202980625836,46.497333750805879],[-81.439420680329292,46.499662942692595],[-81.439457083023683,46.500052914447345],[-81.439457941232632,46.500062268504358],[-81.439767771440529,46.503380217396938],[-81.439777037488511,46.503479638457932],[-81.439944808894964,46.505276220143095],[-81.442819703212123,46.536041063719942],[-81.442970578939239,46.537654471330292],[-81.442985584985493,46.537815313366195],[-81.443065645837606,46.538671208415984],[-81.443233234454297,46.540462921421465],[-81.44342264795938,46.54248800888967],[-81.443943153714699,46.553744340851011],[-81.444005330141579,46.562306418621276],[-81.444009859300436,46.562933564752271],[-81.444013116654915,46.563379474037554],[-81.444016648864334,46.563865414991518],[-81.444038394689073,46.566725283878021],[-81.444038407302898,46.566725543214439],[-81.44411057171952,46.576796596912516],[-81.444112676633523,46.577088867365696],[-81.444159812462559,46.583574918767617],[-81.444176515171435,46.585872572834333],[-81.444399006340333,46.616468825054326],[-81.444472745770597,46.617330532970996],[-81.444647036300154,46.61936709906854],[-81.444668823402722,46.619621887039095],[-81.444949247851739,46.621856263985769],[-81.445045420643638,46.623318131552779],[-81.445075352505668,46.623773511589967],[-81.445085863329794,46.624389246785825],[-81.445092401064215,46.624772985380162],[-81.445037895752648,46.627400957533915],[-81.444936556797046,46.630480123542348],[-81.444932086766968,46.630628255079664],[-81.444887254772439,46.632117918925381],[-81.444429455755966,46.646939170421],[-81.444430268453999,46.648317166481277],[-81.444436284430338,46.658625500023795],[-81.44443727891597,46.660359056779768],[-81.444441543944805,46.667662678057191],[-81.444445518699141,46.674442306921016],[-81.444465073863896,46.678966860335706],[-81.444474005746869,46.681037233278275],[-81.444477218308876,46.681772628425293],[-81.444542696830879,46.696907841227599],[-81.444563654535116,46.701753575218305],[-81.444621461234391,46.71510245087363],[-81.419293558109075,46.715264002998282],[-81.411374669051625,46.715277250911882],[-81.409076082652916,46.715280964442947],[-81.38866160662208,46.715373568033783],[-81.3866416506809,46.715314273401205],[-81.384368023540731,46.715317336901094],[-81.38397939130563,46.71531786875007],[-81.383624284601623,46.715318336790567],[-81.382619948091474,46.715319405359168],[-81.364921454510451,46.715341196638455],[-81.351162299681462,46.715349577589564],[-81.348806604520789,46.715350790078809],[-81.34136883794379,46.715354210790316],[-81.327741301715719,46.715358919002625],[-81.324463928114241,46.715359749411],[-81.313993164668204,46.715361644186473],[-81.313103655654913,46.715361732948999],[-81.312257304690007,46.715362757315312],[-81.312141077990802,46.713275795901176],[-81.312119316396192,46.713276231980117],[-81.302302396272893,46.713449568513148],[-81.289446082994004,46.713674960507234],[-81.277800716896266,46.713877624476744],[-81.255015958341289,46.714269862030093],[-81.252610874018814,46.714311126383322],[-81.250317032574841,46.714350399329135],[-81.248555118128692,46.714380522231522],[-81.217290760136706,46.714909615089972],[-81.215596630301661,46.714937311901842],[-81.20836346845347,46.715055217526597],[-81.206057629654765,46.715092703214019],[-81.205778248559398,46.715097220390568],[-81.198168993706517,46.715220455956242],[-81.196873076013006,46.715241378737026],[-81.196621019049658,46.715245435747569],[-81.194965983872095,46.715272146613671],[-81.183468966006544,46.715456710284599],[-81.183447932651134,46.71545704634233],[-81.183480743915496,46.717595393711271],[-81.183747015528297,46.734938410568013],[-81.183854470084029,46.741934158700843],[-81.183933186696819,46.74705596431663],[-81.183979419850971,46.750065633814849],[-81.184100082323184,46.757915456461141],[-81.184247736719144,46.767517677597468],[-81.184271865456338,46.769085957098547],[-81.184670132849064,46.79496936720458],[-81.184749651728239,46.800134026197142],[-81.183429838354954,46.800145331083279],[-81.178147486523471,46.800190389926797],[-81.152698862814304,46.800592304785901],[-81.14818447058822,46.800662872040675],[-81.148154145322692,46.800663333739926],[-81.139636545321522,46.800795915396741],[-81.139287750108423,46.800801328115163],[-81.134702156545117,46.800872348333137],[-81.134335761157217,46.800878009031521],[-81.131899318206038,46.80091565979059],[-81.130322083510819,46.800939988336701],[-81.129094480411197,46.80095888561209],[-81.127245530255976,46.800987351468812],[-81.103423878176002,46.801338516683451],[-81.079951667004039,46.801678538479571],[-81.073187967808693,46.801775396842089],[-81.07317206333957,46.801775644508794],[-81.073380332952397,46.812803480711615],[-81.073391732697459,46.813418567638678],[-81.073483853017734,46.818384238063956],[-81.073488796017259,46.818650558015314],[-81.073722355276303,46.831233685566133],[-81.073819044779597,46.836440426523417],[-81.073840730429183,46.837607554799568],[-81.073869807920985,46.839174703222881],[-81.073874342541316,46.839417659953355],[-81.074526091041747,46.875826510109384],[-81.074517853073417,46.881385544821498],[-81.074659546772011,46.881949030039777],[-81.074676536306015,46.882572546707266],[-81.074704858745761,46.884094967106655],[-81.074757206404584,46.88690748438983],[-81.074763896043294,46.887356170236849],[-81.074764558593699,46.887402105713043],[-81.074712736827934,46.887402016355487],[-81.073157639150267,46.887399140668911],[-81.069778780734879,46.887392762088325],[-81.00432312371413,46.887245126324999],[-81.002346576745154,46.887232341293036],[-81.000000011384898,46.887217065024871],[-80.991620409567901,46.887162086168189],[-80.990594698636173,46.887155306833343],[-80.967433598964192,46.886999168607758],[-80.948880752619289,46.886692562410239],[-80.948886610936086,46.899755495496031],[-80.948845373523127,46.90384577148351],[-80.948587381360639,46.929406457706975],[-80.948543991604609,46.933705140836047],[-80.948530069776979,46.935083190619544],[-80.948521989921005,46.935883908338973],[-80.948521101280832,46.935967834755424],[-80.948521141350199,46.935968124016782],[-80.948518744880317,46.936201830661396],[-80.948512711531848,46.936800512470789],[-80.948487898212392,46.939257015615468],[-80.94843978225741,46.944021761740082],[-80.948411920114694,46.946778452521841],[-80.948335783812979,46.954310791615669],[-80.948334143612186,46.954474380038967],[-80.948332678003212,46.954612511325479],[-80.948357879155765,46.954753937466478],[-80.948325327099212,46.955345483090994],[-80.948314435355869,46.956423970570832],[-80.948271714238658,46.960647769488531],[-80.948228647867566,46.964905798810385],[-80.948221895835729,46.965574800476837],[-80.94819093777825,46.968637049865229],[-80.948174007218398,46.970309396761031],[-80.948158820928086,46.971810432816795],[-80.948144309705185,46.973266134280877],[-80.947955304313822,46.973267504377617],[-80.945415993028433,46.973285892351647],[-80.932348709918756,46.973379225755032],[-80.932283386651193,46.973206598960729],[-80.932280349574512,46.973198606650278],[-80.931780967043991,46.97302732263767],[-80.931780079835534,46.973030373227374],[-80.931728545431142,46.973204478702613],[-80.931727373093636,46.973208504304459],[-80.931726200755904,46.973212529906355],[-80.917547328013626,46.973155234867598],[-80.89103735033035,46.973042263138211],[-80.875193179663199,46.973007407035098],[-80.873476999774297,46.973003722731242],[-80.87275940610229,46.973681157626991],[-80.872185132500846,46.97366223315008],[-80.868257803526433,46.97353263106212],[-80.850712352949429,46.972951737638013],[-80.849015448616186,46.972947632219928],[-80.83449189869917,46.972870202831984],[-80.834403750162338,46.972869723152286],[-80.833966010500575,46.972909939217459],[-80.83387669742919,46.972918143113141],[-80.833866086953094,46.972909677032106],[-80.833698535742371,46.972775753294258],[-80.817922270291561,46.97275970171227]],[[-80.862529925832405,46.778237807519631],[-80.862613248860256,46.778079637013875],[-80.862957611638905,46.778250552594486],[-80.865776791530379,46.776105949692074],[-80.865108314811394,46.775618280053045],[-80.861962907931428,46.773323531810462],[-80.846292345774557,46.763188830629893],[-80.831736101965163,46.753807789837765],[-80.831405949040473,46.754707221188504],[-80.830840281542805,46.755011853901429],[-80.830154255628401,46.755381302106386],[-80.829786532888406,46.755713705858774],[-80.829562645227767,46.756136394029014],[-80.829496754315244,46.756271293708039],[-80.829404353022454,46.756514115857904],[-80.829351326323831,46.756711992257387],[-80.829219657170285,46.756936795835472],[-80.829061830466657,46.757152502143171],[-80.828890922002657,46.757377309895418],[-80.828772229636712,46.757629090987869],[-80.8287194550973,46.757773017417286],[-80.82860122734985,46.757862807105049],[-80.828404353478561,46.758033504505349],[-80.828207441827416,46.758195200311476],[-80.827984057853854,46.758437807311708],[-80.827773743936476,46.758671492585997],[-80.827563520348747,46.758896114232115],[-80.827340146087451,46.759147796973565],[-80.826827824938093,46.759632997813718],[-80.826735837154985,46.759740814351687],[-80.826551928611067,46.759929490278431],[-80.8263417477703,46.760136200431162],[-80.82607942591217,46.760243813114499],[-80.825804244913869,46.760324409868403],[-80.825542155607948,46.76039600940063],[-80.825240625518092,46.760476506183956],[-80.825030755214357,46.760602200837454],[-80.824768452934265,46.760709709686033],[-80.824466926052935,46.760826296779918],[-80.824126049182667,46.76095171401348],[-80.823798245582495,46.761059212086508],[-80.823457539599261,46.761148711089248],[-80.823169127836039,46.761238203638797],[-80.823011631547402,46.761337011321793],[-80.822788442699334,46.761525603049513],[-80.822578151331456,46.761768310463793],[-80.822302340363152,46.761992804672943],[-80.822184238502146,46.762055614212116],[-80.822039946895103,46.762145412673483],[-80.821790728194216,46.762271013663899],[-80.821633147244626,46.762396801806382],[-80.821436135448053,46.762567399186949],[-80.82123905022101,46.762756111427237],[-80.820766337677512,46.763142294710569],[-80.820503638827461,46.763384914486629],[-80.820254040117291,46.763609515772295],[-80.819952254911158,46.763789017867239],[-80.819650640150869,46.763905506729877],[-80.819493124248595,46.764013306652465],[-80.819322450344529,46.764166006501817],[-80.819230235084206,46.764318806365139],[-80.819046148284343,46.764525502244844],[-80.818796447395499,46.764786105551345],[-80.818533650235011,46.765046706926917],[-80.81821832953348,46.765343092600034],[-80.817903344023506,46.765549595545693],[-80.817273833816159,46.76580959460064],[-80.817024658643959,46.765917199108763],[-80.816788539329394,46.766024800384173],[-80.81652605417591,46.766195410421858],[-80.81644704248238,46.766321207140564],[-80.816367836140117,46.76650109494134],[-80.816288730484999,46.766671894063549],[-80.816222734365098,46.766824805390492],[-80.816221553904271,46.767157805483947],[-80.81620793366065,46.767328693987032],[-80.816089549295327,46.767481493403942],[-80.815892455326619,46.767670202555259],[-80.815682153174834,46.767867893549408],[-80.81543252330556,46.768092410812905],[-80.815156750228212,46.768335002194981],[-80.814880725377279,46.768595506605095],[-80.814513046191138,46.768882912399995],[-80.814079831272153,46.769170092367794],[-80.813397148642309,46.769645996589915],[-80.813055733293211,46.769897396752121],[-80.812544133147597,46.770130594716775],[-80.81208485702625,46.770381815319176],[-80.811717441981884,46.770597213865628],[-80.811258126108612,46.770848401372064],[-80.810588735112276,46.771234213470365],[-80.810155727266832,46.77147649697271],[-80.809644031227492,46.771727591220873],[-80.80921102350834,46.77193390620976],[-80.808856644404244,46.772140295834532],[-80.808397325964947,46.772391500261172],[-80.807977433424867,46.772606814880952],[-80.807649234278927,46.772813206536469],[-80.807308023038459,46.772992610509611],[-80.806993225161463,46.773136106455389],[-80.806599437097219,46.773351413034717],[-80.806284529719733,46.773521810756641],[-80.806048155113402,46.773683405512756],[-80.8058774523805,46.773800101212153],[-80.805759138517331,46.773925912301138],[-80.804695994306812,46.775264183008112],[-80.804601541625487,46.775291800163011],[-80.804286733838595,46.775408295638663],[-80.804168421450385,46.775516110434992],[-80.804089846042032,46.775524906517653],[-80.803985051706661,46.775515695818818],[-80.803919552291774,46.775515598133467],[-80.803854131164314,46.775506511661995],[-80.803814847159884,46.77549750324004],[-80.8037887582704,46.775488406916004],[-80.803762654308684,46.775461415810369],[-80.803736634841954,46.775407311043523],[-80.803697731183689,46.775281294468463],[-80.803684729057551,46.775245309461525],[-80.80367175372001,46.775218196588384],[-80.803658735706009,46.775209204213247],[-80.803619524811864,46.775182104713224],[-80.803593421137649,46.775155113594572],[-80.80354114519389,46.775137012356403],[-80.803462645512454,46.775109901796931],[-80.803384039549726,46.775109695319486],[-80.803292226802682,46.77511859921335],[-80.803239850012872,46.775136504231874],[-80.803187231494064,46.77518140048339],[-80.803160847498788,46.775235410841098],[-80.803028269225365,46.77535013841549],[-80.805424515745045,46.776718336691502],[-80.819675163425345,46.785637351623372],[-80.819675190962656,46.785638570213308],[-80.820629638891262,46.786242255728567],[-80.836125974394164,46.796082641991354],[-80.837620389872896,46.797189820658623],[-80.845054081822283,46.791569616775028],[-80.848221028154015,46.789174657114302],[-80.851430376779106,46.786747286399851],[-80.853438659187077,46.785227493513332],[-80.855870067640225,46.783387295610865],[-80.856295510558084,46.783112610596021],[-80.856680638104066,46.782863951996937],[-80.856735132534212,46.782851546226446],[-80.862280250448848,46.778534511823274],[-80.862372246134214,46.778435603339418],[-80.862529925832405,46.778237807519631]]]]}}
]
}
