{
"type": "FeatureCollection",
"name": "ottawa_boundary",
"crs": { "type": "name", "properties": { "name": "urn:ogc:def:crs:OGC:1.3:CRS84" } },
"features": [
{"type":"Feature","properties":{"id":1497,"PRUID":"35","PRNAME":"Ontario","CDUID":"3506","CDNAME":"Ottawa","CDTYPE":"CDR","CSDUID":"3506008","CSDNAME":"Ottawa","CSDTYPE":"CV"},"geometry":{"type":"MultiPolygon","coordinates":[[[[-75.325079104327784,45.508875687966544],[-75.324264002530938,45.507454508268864],[-75.324258914256077,45.507445300554942],[-75.323906310040314,45.506811912140719],[-75.320733692693651,45.501236098254466],[-75.320697006405425,45.501154800658185],[-75.320523805610861,45.500874008247507],[-75.320044289003548,45.500044504660615],[-75.31959751323572,45.499271708478844],[-75.319035989029388,45.498280686020863],[-75.318350590989766,45.497076488351468],[-75.317264815385315,45.495189092899231],[-75.316877206559568,45.49451531321219],[-75.313994212357841,45.489459313922509],[-75.313266395278092,45.488173906304766],[-75.31086059753143,45.483946592881601],[-75.310590790461518,45.483491092556214],[-75.310452896451054,45.483258405194746],[-75.310262889367053,45.482909395868418],[-75.309601412681076,45.481690608263754],[-75.309588488673114,45.481672593549149],[-75.309381418152171,45.481294597476065],[-75.307865311357688,45.478490706279651],[-75.307854702490403,45.478471107194771],[-75.305832905175563,45.474877591202052],[-75.305500908478564,45.474244189156252],[-75.305303902567857,45.473882195298415],[-75.305291705289605,45.473855091351226],[-75.30527930228132,45.473836990116077],[-75.305056914030828,45.473465704175027],[-75.304442693107774,45.47227140736566],[-75.303247715347183,45.470117307139994],[-75.302005014759658,45.467800594967017],[-75.30167742540506,45.467207078844964],[-75.300761110097667,45.465546901431431],[-75.300440191935181,45.465003610846665],[-75.299020911413322,45.462378997839267],[-75.297880807080546,45.460270493924874],[-75.297624214632293,45.45981239900955],[-75.297104709572281,45.458885508578057],[-75.295494015086746,45.455863004337999],[-75.293801494918725,45.452649488607378],[-75.29276568593194,45.450695998779352],[-75.292723762310999,45.450621700679214],[-75.292556296329792,45.450324891622714],[-75.291282795170289,45.447799894552418],[-75.291016590706036,45.447268095844329],[-75.290189601896472,45.445611604866819],[-75.288173521776812,45.441960289873848],[-75.28706318299119,45.43973758793728],[-75.282340293107922,45.430280905017725],[-75.282338086098136,45.430266497473845],[-75.282325914594267,45.43023939573704],[-75.282313491268624,45.430221208455485],[-75.282247171445036,45.430078017769638],[-75.282166890850533,45.429904690146437],[-75.281607710181319,45.428881398631923],[-75.280851216376291,45.427496994395973],[-75.279648915229757,45.425171506654699],[-75.27625318518092,45.418503205078999],[-75.274680477613956,45.415461619537936],[-75.274215595622138,45.414562500419976],[-75.272108088435374,45.410485896669236],[-75.271782948676204,45.409821277584022],[-75.271223489624902,45.408781781675209],[-75.270560411758069,45.407490691284586],[-75.270430308123125,45.40728731023902],[-75.270328396841876,45.407128299488541],[-75.268734308229028,45.404060505047596],[-75.268037621435326,45.402833532616874],[-75.267422156505461,45.401749544905833],[-75.26739485716412,45.401702642548344],[-75.266254965410596,45.39974596668111],[-75.262280589620318,45.392922499175917],[-75.26152368240642,45.391622746240103],[-75.258192825785088,45.385902174336614],[-75.257897021303791,45.38539410735229],[-75.256159414131702,45.382435095541474],[-75.253590066826447,45.378058944388137],[-75.253457332056129,45.377826270920032],[-75.250876822910428,45.373305032228501],[-75.246974509188945,45.366465947667592],[-75.245932787281475,45.36463999816543],[-75.245986693561562,45.364623697952233],[-75.24652819240616,45.364462594741866],[-75.247112184500111,45.364288905875888],[-75.247839109800836,45.364072700022056],[-75.249422645225451,45.363594712087476],[-75.249444519053512,45.363588092869094],[-75.249565999748299,45.363550598501106],[-75.24959158676981,45.363542714117251],[-75.250394501170732,45.36329520133669],[-75.250540878637764,45.363253988103978],[-75.250571709155636,45.363245310152216],[-75.254006006031958,45.362282010511265],[-75.254031495329201,45.362273006421589],[-75.254962406412318,45.361991890940779],[-75.256212099252863,45.361628987662748],[-75.256237580859235,45.361619903084517],[-75.256275810090017,45.361610914673733],[-75.258290599759647,45.36103019642259],[-75.261582900680821,45.360087507543135],[-75.262880492459473,45.35970560346631],[-75.266501811545723,45.358700905662801],[-75.266510982993438,45.358697000128444],[-75.267017193502852,45.358481508492687],[-75.267444491001868,45.35819818688568],[-75.267704602120787,45.357975994001642],[-75.267874400441855,45.357797888866465],[-75.268072482898916,45.357494097865469],[-75.268220506279988,45.357144704607514],[-75.26827728773948,45.356875900357764],[-75.268277403614903,45.356875398236497],[-75.268261019260976,45.356452194484859],[-75.268165010764577,45.356172307283352],[-75.268215503167639,45.356157896184754],[-75.27039960166006,45.355539400849487],[-75.275396581251044,45.354054306859197],[-75.294625110265812,45.348520990062759],[-75.2946506113216,45.348511901694984],[-75.294688789296799,45.348502786683653],[-75.296931307223019,45.347867105725335],[-75.299510791085069,45.347129804530653],[-75.300949390999563,45.346694985398685],[-75.306675612621447,45.345054409552468],[-75.306701301282899,45.345045694478912],[-75.306739689044051,45.345037086376855],[-75.308191113160163,45.344593407176696],[-75.309771104542733,45.344141303823712],[-75.312888819383048,45.343225561617643],[-75.312956787127831,45.343205587305143],[-75.318690993800374,45.341515787237284],[-75.328323720129646,45.338689593820156],[-75.329343086858259,45.338398695199537],[-75.333458910098201,45.337288795871117],[-75.333560899932934,45.337270503798699],[-75.333775301776086,45.337243599439162],[-75.334966179966671,45.336850323363898],[-75.335151690400949,45.336776543464943],[-75.336070436140872,45.336398473119885],[-75.337707249252745,45.336108831734663],[-75.338474496460236,45.336036608714011],[-75.338954100560613,45.335905286878301],[-75.341183856493387,45.335352066646102],[-75.344948254632499,45.334352214515242],[-75.345906516808768,45.334029137732664],[-75.346644083907393,45.333800568010801],[-75.346654902944152,45.333796782528488],[-75.346898576801166,45.333711497844824],[-75.347020374097696,45.333668860998557],[-75.347264072028153,45.333583606334201],[-75.347385903307384,45.333540975517906],[-75.347507708891968,45.333498313587697],[-75.34762953049399,45.33345570691727],[-75.347751370292627,45.33341305117326],[-75.347874993485291,45.333397098208806],[-75.347930015666662,45.333389996487256],[-75.348689985656748,45.333189991526652],[-75.349779984849249,45.332900003839192],[-75.352724795149086,45.332099690546293],[-75.357689284439118,45.330754594601935],[-75.360160911720158,45.330089000035827],[-75.363346100318552,45.329258891745837],[-75.370072191924081,45.327408090267461],[-75.375970405593591,45.325847909456897],[-75.37618420346881,45.325790908513412],[-75.376266576479779,45.325768854647116],[-75.37913380123554,45.325000988000568],[-75.379228848996036,45.324976799917984],[-75.382403093017544,45.324169205193925],[-75.387198299335054,45.322929196561027],[-75.391197912666371,45.321915210479936],[-75.39358201323094,45.321326505242304],[-75.394158817428007,45.321179092772695],[-75.396184687291907,45.320640792507888],[-75.397722887604104,45.320250707492931],[-75.407069396099999,45.317766888814226],[-75.40964650265704,45.317071598269806],[-75.409864615605017,45.317001703239548],[-75.420687092801771,45.313982202879416],[-75.422354790251617,45.313499007355972],[-75.423004292855353,45.31333449690289],[-75.425944820008894,45.312465693636554],[-75.424895282945357,45.310366207843401],[-75.424882405870193,45.310348205517833],[-75.424869490640774,45.310321296827752],[-75.42203218221232,45.304625707047975],[-75.420137706646344,45.300595494899618],[-75.418984802940415,45.298190893423346],[-75.417572789911205,45.295333892770728],[-75.415473287197628,45.291102603255226],[-75.414785217525079,45.289746201056346],[-75.414661918964043,45.289528997160929],[-75.414649497330771,45.289510895036287],[-75.414637180223366,45.289483808955552],[-75.41412199496223,45.288426103988208],[-75.411618985839013,45.283317910027009],[-75.407556083607957,45.27517110267172],[-75.403380487236262,45.266978099337507],[-75.402851478747365,45.265992108249478],[-75.402470111423838,45.265286510056221],[-75.396763605746116,45.255296790626538],[-75.396695300763028,45.255162265166895],[-75.396636305076328,45.25504599508281],[-75.396623380925163,45.255019002764378],[-75.396610494354562,45.255001098732151],[-75.396584792553284,45.254965199324673],[-75.396584247955658,45.254964181459243],[-75.396538441131071,45.25488131265638],[-75.396455711587663,45.254731604868176],[-75.39645521079072,45.254730569025973],[-75.396442796806795,45.254704588107423],[-75.39642979445172,45.254677607302234],[-75.396416986474563,45.254659691770783],[-75.396300684725588,45.254435004508416],[-75.395230302166468,45.252611311517668],[-75.395230098599143,45.252584291503133],[-75.395217204110565,45.252566411923645],[-75.395191504815415,45.252530512514703],[-75.395190958214215,45.252529598948293],[-75.395062507546669,45.252314910850664],[-75.395061882536112,45.252314008782292],[-75.395049702853299,45.252296891020535],[-75.395036709138225,45.252269990150317],[-75.395023895296376,45.252251994774632],[-75.394985204739797,45.252189090197874],[-75.394340010310856,45.251030198398418],[-75.393785497951868,45.250068900766571],[-75.393129299824565,45.248899409113641],[-75.392341214094259,45.247561892903889],[-75.390802706642361,45.244837098847469],[-75.390027312377981,45.243461189649508],[-75.388017014228495,45.239958701184328],[-75.384710604141588,45.234056201229556],[-75.38373129828237,45.232348498047656],[-75.383364307905182,45.231688297060437],[-75.38252588037318,45.2302763055309],[-75.38177571771557,45.228919101535297],[-75.381578518691299,45.228584192110631],[-75.381559465979578,45.228551469908268],[-75.380814713907483,45.22727179012734],[-75.38010039718327,45.226032009754206],[-75.38008820583056,45.226004890813954],[-75.380075886968271,45.225986697821305],[-75.37865880816392,45.223579102739947],[-75.376465803533591,45.21984098944116],[-75.375060884065206,45.217478397416876],[-75.375060194239779,45.21747688115618],[-75.375048688896669,45.21745130329581],[-75.375036305234133,45.217433097350117],[-75.374949710992169,45.217306300854041],[-75.374949653094305,45.217306159156543],[-75.374937515937347,45.217279206739072],[-75.374925095665589,45.217261098586398],[-75.373359798068591,45.21464490396766],[-75.37198050020028,45.212282588024458],[-75.3711078002422,45.210708089512707],[-75.368854514230264,45.206852199202473],[-75.366550389215305,45.203004791162641],[-75.365391318273382,45.201121498122774],[-75.365219398909261,45.200804795428773],[-75.364651893377697,45.199899299040709],[-75.364121617916609,45.199048096301915],[-75.363256684448999,45.19773460885532],[-75.362439286957638,45.196526591732365],[-75.362426400143363,45.196499601680188],[-75.362413509377973,45.196481691024339],[-75.361809582213212,45.195583598837878],[-75.360241710213273,45.193158498782537],[-75.360228800411775,45.193122607172633],[-75.360215913632473,45.193104592209579],[-75.357902689022126,45.189520899385649],[-75.357897294295128,45.189519991103637],[-75.357545726114282,45.188969779306866],[-75.356702703129685,45.187650308881999],[-75.356678284114508,45.187596005766679],[-75.356455409081903,45.187246897932084],[-75.355454386837792,45.185678907259614],[-75.353766020289015,45.182969792899954],[-75.353217814530524,45.182121898246649],[-75.353185409962265,45.182074493685604],[-75.353940406547935,45.181778597065019],[-75.353965477636208,45.18176878387564],[-75.353965915044739,45.181768604370994],[-75.355515793486518,45.181123505280162],[-75.357534389333367,45.180294707133427],[-75.3575430494557,45.180291152621166],[-75.35756409660128,45.180282493223771],[-75.360306711185189,45.179171203165495],[-75.361153397557914,45.178825186763561],[-75.36219249109314,45.178399011335287],[-75.363402912617588,45.177901196160811],[-75.364153798230632,45.17759638837812],[-75.36470488715797,45.17736979763437],[-75.366462987171133,45.176642709083239],[-75.367322905682812,45.17627679560411],[-75.367698412675196,45.176122313969415],[-75.36855031409506,45.175764098476172],[-75.3695415956403,45.175346688517912],[-75.370647114552526,45.174886398823531],[-75.372224319544742,45.174232095003177],[-75.372794108933917,45.173996999619511],[-75.374390801004381,45.173329688774167],[-75.375601788104177,45.172829784875468],[-75.375645670282438,45.172811697397705],[-75.377211110133047,45.172166303913414],[-75.379319808632204,45.171283307551981],[-75.380511086275646,45.170770901393411],[-75.380514155808143,45.170769619576198],[-75.381391731492073,45.170402147921038],[-75.381622795338217,45.170305410569135],[-75.382781212301992,45.169821305112244],[-75.384249194920784,45.169193610827563],[-75.385443914772594,45.168691202644602],[-75.3864202821823,45.168281399117717],[-75.387152000540567,45.16796769822836],[-75.38784578607688,45.167680290032202],[-75.388183286491042,45.167535190077068],[-75.390340504832182,45.16662029423852],[-75.391024815713891,45.166322801911043],[-75.391043254686764,45.166315139930603],[-75.392664187804257,45.165640793968315],[-75.393732885880539,45.1651827938636],[-75.396543489253517,45.164006909222323],[-75.39731189023145,45.163673793717003],[-75.398276396618073,45.16326958913168],[-75.399655187494091,45.162690010447378],[-75.400084685687986,45.162509304003734],[-75.400189086825506,45.162465401274964],[-75.401062903211226,45.162101894826563],[-75.402416989214231,45.161547587888201],[-75.402716884414829,45.161417802349938],[-75.402756443509887,45.161401512779754],[-75.403419497210393,45.161128389930603],[-75.404924210816134,45.160482807542614],[-75.40494274768983,45.160474769765052],[-75.406421204633588,45.159834299263743],[-75.406979016529604,45.159584297278656],[-75.407008369472308,45.159571954593027],[-75.408945186070909,45.1587582027583],[-75.408985890881539,45.158740713521844],[-75.409642791184865,45.158458589010941],[-75.413257908093129,45.156942308595397],[-75.413301431347179,45.156923697919112],[-75.414234510937135,45.156524700206575],[-75.41429686271384,45.156498444943935],[-75.415959497761037,45.155798297485944],[-75.416031730789342,45.155767953524226],[-75.416264274729798,45.155670235468705],[-75.417615495514511,45.155102486404651],[-75.418509885787913,45.154721199756686],[-75.418617319121324,45.154675497362661],[-75.420791390057047,45.153750598134174],[-75.422347703043016,45.153079001342519],[-75.42417770434939,45.152302395073036],[-75.42583940941276,45.151571491125075],[-75.426221902573303,45.151405898946599],[-75.426477207272953,45.151294506548112],[-75.426577575258591,45.151249359804048],[-75.426590593358171,45.151243503990884],[-75.426713693726484,45.151185792069583],[-75.42684160398349,45.151124010382162],[-75.426967693583435,45.151058592457893],[-75.42711369892244,45.150983299455],[-75.427247612314844,45.150908909061982],[-75.427336804140523,45.150854295413588],[-75.427491999883614,45.150753310885058],[-75.427595097238026,45.150693530364144],[-75.4277071076461,45.150628590663004],[-75.427818896600101,45.150568892777159],[-75.427989700174479,45.150484794298976],[-75.428310207646348,45.15034259727959],[-75.430919589029088,45.149314508203872],[-75.43291437946155,45.148533907804151],[-75.434623443811901,45.147867287985974],[-75.434632917503734,45.147863593322803],[-75.435321598595408,45.147594306900672],[-75.435888192016449,45.147377590504256],[-75.437319715989119,45.146842406621026],[-75.437778106183245,45.146675595961213],[-75.438330397844126,45.146478896703321],[-75.439603212170596,45.146008613911434],[-75.440948414044243,45.145503911758986],[-75.441150515527255,45.145427505584223],[-75.441526886528578,45.145305293279115],[-75.444788175275107,45.144135145693134],[-75.444799186193706,45.144131188406362],[-75.445094635149729,45.144025225524331],[-75.44510359557232,45.14402200956502],[-75.445840912595898,45.143753102647139],[-75.445851907027006,45.143749089887642],[-75.446062810576251,45.143664984844442],[-75.446080089725385,45.143658092904246],[-75.450607690002542,45.142028888183852],[-75.451939197242609,45.141528395302437],[-75.4519578310247,45.14152172952361],[-75.451964609255569,45.141519308412335],[-75.452015414740188,45.14151010103209],[-75.455616124244045,45.140240117278573],[-75.45562981810167,45.140235300338695],[-75.458343812038322,45.139279207330169],[-75.458362643417288,45.139279141265398],[-75.458369195130416,45.139279109501203],[-75.45840728436086,45.139269904394055],[-75.463302194864923,45.137539608789623],[-75.464556452115716,45.13709768252761],[-75.464646400966984,45.137065992412865],[-75.464647552273249,45.137065579742767],[-75.465599659365466,45.136723744672878],[-75.465610108268564,45.136719994535262],[-75.46563551480746,45.136710903979143],[-75.465673600379091,45.136701695900236],[-75.46590395624753,45.136623256814524],[-75.465914410420368,45.136619690680057],[-75.465965188709092,45.136601502949667],[-75.465990491481293,45.136592392955322],[-75.46602848707424,45.136574303409311],[-75.466611799719004,45.136355688609008],[-75.470479499172669,45.135025407337828],[-75.472685898571257,45.134269092435389],[-75.472926699049296,45.134177998968205],[-75.473423149025649,45.133997195377638],[-75.473430797903887,45.133994412638359],[-75.47715981368718,45.132766677748293],[-75.477327712581925,45.132711396233432],[-75.480819597898332,45.131585510437709],[-75.483343346812191,45.130779449828701],[-75.483557904711702,45.130710897281908],[-75.484458491363625,45.130421807243415],[-75.484479577378025,45.130415071121021],[-75.485303403317559,45.130152163267837],[-75.48531011250833,45.130150015158058],[-75.486037195414056,45.129912703161359],[-75.486697000346751,45.129702612422648],[-75.48784738330977,45.129327507089201],[-75.489988196899148,45.128653523180354],[-75.490325509209313,45.128547312803597],[-75.490868387454029,45.128373108900647],[-75.491628114013338,45.128122605748104],[-75.492406993212342,45.12785990192706],[-75.493805506657168,45.12741819512302],[-75.493967667428379,45.127366188285315],[-75.494479420932407,45.127202090855278],[-75.495429814103304,45.126911666590402],[-75.495435606075503,45.126909896065456],[-75.495929396252478,45.12676079904675],[-75.496190714833432,45.12667630941062],[-75.496496888259927,45.126570110489602],[-75.496786794173786,45.126458291530348],[-75.497184510129344,45.126294400033132],[-75.497992302813614,45.125940889864232],[-75.498469201778889,45.125727589073726],[-75.498991420587913,45.125493892755287],[-75.499027793844448,45.125477609834682],[-75.499217716387761,45.1253927024147],[-75.499251506335838,45.125377506831448],[-75.50007280883321,45.125007913923902],[-75.500989409199391,45.124594708818634],[-75.501837518358201,45.12421072738308],[-75.502405884767697,45.123953406233262],[-75.505023014933982,45.122774905662347],[-75.505956714721151,45.12236289482798],[-75.50674520175771,45.122028696581168],[-75.507434483334862,45.121730398180986],[-75.507583543974363,45.12166741289969],[-75.507976624617044,45.121501322132488],[-75.508230189548172,45.121394189991626],[-75.508334139964234,45.121346071349905],[-75.508338191182844,45.121344211419334],[-75.508949798780719,45.121093610349959],[-75.509092072242083,45.121033176618035],[-75.509980694769624,45.120655699848193],[-75.512126603374298,45.119759492639815],[-75.512220875373089,45.11972120283248],[-75.513945594641882,45.119020606935855],[-75.51413986056501,45.118941822204796],[-75.516519397534239,45.117976600920983],[-75.517368088294575,45.11763070235034],[-75.517598065351265,45.117537933460596],[-75.517601405406694,45.117536594461527],[-75.517826600867323,45.117446856518775],[-75.52019269713108,45.116503801851977],[-75.522004810218831,45.115777910506324],[-75.522056444282441,45.115757063590273],[-75.522752360208003,45.11547616055897],[-75.523012897852695,45.115371005559609],[-75.525209405577186,45.114486604311352],[-75.526625213957828,45.113915709380848],[-75.527426262699962,45.113592544266446],[-75.528060601320249,45.11333660059514],[-75.532470304326239,45.111568697661284],[-75.532481106662232,45.111564354548491],[-75.535356584305092,45.110402800338072],[-75.536467393527559,45.109957287857405],[-75.536844914375862,45.109805006632477],[-75.537099037441649,45.109702501708171],[-75.537787489139404,45.10942478981277],[-75.538356756261877,45.109191153901982],[-75.538881996005344,45.108975600640619],[-75.540332820516142,45.108381593860535],[-75.540335784987064,45.108380367480891],[-75.542161589267479,45.107616092410005],[-75.544482311560415,45.106643210439529],[-75.54591236458873,45.106053677708779],[-75.548247015008243,45.105091190433427],[-75.551473115533483,45.103752504533951],[-75.552465918242163,45.103334893990016],[-75.553536888077346,45.102865488070442],[-75.55354912627547,45.102860443017185],[-75.554539483057525,45.102453497934398],[-75.55468731274523,45.102393214991309],[-75.555319982492676,45.102126202973892],[-75.556042397702427,45.101817807374424],[-75.55968910611935,45.1002374112662],[-75.561416310186999,45.099467212156938],[-75.562657706748823,45.098910389345399],[-75.563369486899489,45.098599592047762],[-75.569681980700253,45.095780728596303],[-75.569791095565279,45.095732010230194],[-75.5709508119388,45.095222892317892],[-75.571811318100927,45.094837287714753],[-75.57235088257859,45.094595499338013],[-75.57464259003784,45.09355210714341],[-75.57863761118017,45.091748307257987],[-75.579793990915292,45.091233590437376],[-75.581387310381828,45.09052449206613],[-75.584461199656531,45.089140607830842],[-75.584550281674126,45.089149101586571],[-75.587379012484348,45.087924699822182],[-75.589609200626015,45.086858706373853],[-75.590090393696443,45.086816198586547],[-75.590308712375858,45.086817911419224],[-75.590493304872496,45.086776712947618],[-75.590666898178114,45.086690988674768],[-75.591128414222197,45.086415697978872],[-75.59214799687112,45.085952197376045],[-75.594711195040787,45.084644088740703],[-75.594822603857438,45.084566904926234],[-75.594903989146985,45.084506106323893],[-75.594957689038097,45.084425989783462],[-75.594984194541397,45.084348202758569],[-75.595261204052832,45.084503392536881],[-75.595411412658791,45.084648491082511],[-75.598231204388753,45.087892495089704],[-75.598421501396913,45.088134687952049],[-75.598629708864138,45.088399611858655],[-75.599815496296728,45.089740894319384],[-75.601573799503754,45.091744211069219],[-75.602424104718523,45.09271308831228],[-75.604332810178448,45.094959907851447],[-75.604889096300099,45.095626507733712],[-75.60544400350912,45.09629148915289],[-75.606577787234571,45.09765020204901],[-75.60899560227368,45.100683795617066],[-75.611637295106817,45.104043098093257],[-75.611664768745626,45.104078439541752],[-75.612087414117411,45.104622608260982],[-75.612347404316779,45.10495750993767],[-75.61237589157291,45.104986506250242],[-75.612409985466954,45.105021008033837],[-75.612472792269699,45.105066492276549],[-75.612585882361259,45.105148402125067],[-75.612724804962298,45.105203395950738],[-75.612826008808213,45.105231212968576],[-75.612936562802474,45.105227183241965],[-75.613029504141466,45.105223788187836],[-75.613064087900185,45.105449099902458],[-75.613112209748905,45.105629412816697],[-75.613160711758454,45.10577378952653],[-75.613295812124676,45.106080800535885],[-75.61345888791304,45.106374095162771],[-75.613928391218778,45.106993604420552],[-75.614036513994563,45.107136311125188],[-75.615155591653917,45.108589810875394],[-75.615312295066104,45.10880520597307],[-75.615660986683565,45.10926679612794],[-75.61651836773359,45.110414334642314],[-75.616580098141426,45.110496981496077],[-75.616699396365064,45.110646950884714],[-75.618035181124498,45.112324673255479],[-75.618550524384048,45.113009330791279],[-75.620126768827305,45.114534432198148],[-75.620145695979005,45.11455705879866],[-75.623661175405331,45.118788062592778],[-75.623748004348087,45.118892588108174],[-75.627700632964164,45.123838808372199],[-75.627703134054158,45.123841935787574],[-75.628601063596449,45.12552851801474],[-75.628660517267122,45.123452825775104],[-75.628249162019415,45.12164518782464],[-75.627320844274465,45.119788225493181],[-75.625385086268963,45.117312958537489],[-75.623350109925781,45.114805187586995],[-75.621121778970306,45.112344621778227],[-75.619028381310031,45.108924170702508],[-75.618572076974843,45.107721556889935],[-75.618089531183784,45.105657708216434],[-75.618116590721002,45.103979747029868],[-75.618596936264396,45.102068748956491],[-75.619350668782531,45.100585837507616],[-75.620001284270728,45.099285419915049],[-75.620832230546839,45.098197599911636],[-75.621943068433922,45.097151956839454],[-75.623256254593443,45.096032560526048],[-75.624617047351165,45.0950739467376],[-75.626032394832194,45.094184721806052],[-75.627832601037596,45.093245072096096],[-75.62974584661319,45.092213408528018],[-75.631715381184179,45.09127907621049],[-75.633460120077373,45.090582509387971],[-75.634792685646318,45.090013922015054],[-75.635639330950866,45.089213434904927],[-75.636453164598052,45.088096650722981],[-75.636942724150387,45.087049870901787],[-75.637269186737157,45.08578115308849],[-75.637411366058245,45.084530353528244],[-75.637697274585804,45.082899471530283],[-75.637711573518573,45.082823976232035],[-75.637718070158982,45.082789804537676],[-75.637776506418973,45.082481548045457],[-75.637784277052901,45.082440610559566],[-75.637797555221297,45.082370491280237],[-75.638391575587164,45.080257577031055],[-75.638742680482736,45.078433320835401],[-75.638965742426365,45.076561310447026],[-75.639140062565701,45.074616153257743],[-75.639632888044446,45.07268985557117],[-75.640624548794278,45.070922871271833],[-75.641528606636697,45.069386022983146],[-75.642984772454213,45.067904734094938],[-75.644674302928607,45.066499714034833],[-75.646136755264919,45.065556278171833],[-75.64778829948493,45.064576558817478],[-75.649511838902129,45.063690890145686],[-75.652301299871525,45.062231961909696],[-75.654554097162915,45.061099957712962],[-75.655341301075055,45.060704378312231],[-75.65870986122998,45.059176488270644],[-75.661537206972042,45.058037958802828],[-75.665056992908944,45.056587594123215],[-75.667932542905703,45.055565463447785],[-75.670234349867613,45.054579419616331],[-75.672296701188912,45.053398550392387],[-75.673865413583357,45.052410337829066],[-75.67510155866546,45.051043773590521],[-75.676150558941515,45.049851314019591],[-75.677766246680861,45.048645144373587],[-75.679235414810734,45.04776330769613],[-75.680036129249174,45.047507294775812],[-75.680124904605449,45.047481514503374],[-75.680163623361139,45.047470268895644],[-75.680363328798521,45.047412242706002],[-75.68207708003402,45.047256748423962],[-75.683748363455791,45.047061403567639],[-75.685654145073812,45.047203675463855],[-75.686946885429023,45.047374401919832],[-75.687801290987025,45.047614427971411],[-75.688607434480772,45.047552831558257],[-75.689270953081817,45.04718721672883],[-75.689790046518041,45.046651355309962],[-75.690538415081051,45.045694323375884],[-75.690921637495578,45.044434093657522],[-75.69082164269544,45.043523981174758],[-75.690993012313911,45.042667405826023],[-75.69125453606064,45.042147001153502],[-75.6924660980564,45.041072476179252],[-75.693682682729289,45.039924297188058],[-75.694974171677288,45.038594387440781],[-75.695878025960354,45.037494610575692],[-75.696600214732186,45.036433882743871],[-75.696964436929036,45.035470359518229],[-75.697150754546129,45.0346223559321],[-75.697245410594562,45.033813635834321],[-75.697331782546115,45.033079874752147],[-75.697544518396143,45.032629758910304],[-75.698295703720603,45.031564456502757],[-75.698601920348111,45.030970615312093],[-75.698644175342778,45.030888654775914],[-75.700370747171789,45.029451997597519],[-75.702353670298066,45.027860589757701],[-75.703917201041449,45.026614475660914],[-75.705886373928976,45.025241963105174],[-75.707648913631388,45.024339639262493],[-75.70777442901209,45.024275363018745],[-75.709187860536971,45.023738814724744],[-75.711177333519501,45.023227812443977],[-75.712624189899358,45.022987843059688],[-75.713993717147844,45.022435220713064],[-75.715105129586306,45.021704271030885],[-75.716264885163611,45.021049548120097],[-75.717654032559622,45.020489852854134],[-75.719200871903325,45.020131710806261],[-75.721250292575192,45.020025254486391],[-75.723212348439446,45.020231975305563],[-75.724567620781031,45.020442111638225],[-75.725485310036589,45.020438091088607],[-75.726844369165761,45.019968532164505],[-75.728528111452718,45.01907112598294],[-75.729728367210313,45.0182266021732],[-75.731261174957851,45.01714571808683],[-75.732194151784839,45.016152833668826],[-75.733110391661143,45.015224358039866],[-75.734297731333882,45.014262138638742],[-75.735600700406366,45.013494881361062],[-75.736853620641725,45.01269131796866],[-75.738539773587632,45.011931230193795],[-75.74073732039119,45.010431831194715],[-75.743078258293792,45.009383142766559],[-75.744653013088168,45.009042373204068],[-75.745913128811893,45.00866950760777],[-75.746890157517498,45.008476078615274],[-75.748340167977474,45.007880877901215],[-75.74956292065697,45.007196250334367],[-75.750206033270473,45.00645525657221],[-75.750695981122334,45.005904193401939],[-75.751334353440242,45.005360165303962],[-75.752756276503888,45.004983183922647],[-75.754171824244466,45.004586481401311],[-75.755094000907135,45.004471663361215],[-75.755997865336099,45.004241130043859],[-75.757020309067826,45.003966299325477],[-75.757787219316043,45.003472710804679],[-75.758536568010314,45.002797463695167],[-75.758626259623057,45.00223238548655],[-75.758476653104537,45.001557307556283],[-75.758409605733902,45.001008504359881],[-75.759436135305023,45.000012661123286],[-75.759441761699762,45.000007221044704],[-75.759505698710342,44.999945198036968],[-75.760348897227502,44.999697373882576],[-75.762524709226,44.99925895303096],[-75.764155086022242,44.998374720661147],[-75.764902924310604,44.99695900962211],[-75.764876144914197,44.996733415444886],[-75.764806253223256,44.996144212688847],[-75.764667460096589,44.99544495747449],[-75.764787758713638,44.994402022374132],[-75.765536226551632,44.993316208905867],[-75.765950198721114,44.992718037303682],[-75.766353672456177,44.992229151117854],[-75.767636292539535,44.991088472111059],[-75.76898244168332,44.990216606754068],[-75.770104119760703,44.989664932595559],[-75.771997321667186,44.989011558236434],[-75.773958560720828,44.988440165080114],[-75.775730574177729,44.987715879401492],[-75.777569772118525,44.986941338962481],[-75.780077559088966,44.986011411369766],[-75.781575213298893,44.985334023778158],[-75.781953152697355,44.98515663735278],[-75.783260305909295,44.984444272441607],[-75.784526082341529,44.983684226864526],[-75.786242443534647,44.983138626586751],[-75.788384416097784,44.982645634932489],[-75.790705258959477,44.98258496835507],[-75.792747721276783,44.982602737963752],[-75.794748581796071,44.98276372174054],[-75.796098721427541,44.982665168348376],[-75.797264974251732,44.982420930604142],[-75.797387502698243,44.982398652361113],[-75.797430892044659,44.982390762077188],[-75.797435290170327,44.982389689016642],[-75.798508378949492,44.982125863998434],[-75.799413272883626,44.981868611134189],[-75.799745662267185,44.981525265529797],[-75.799926127169343,44.981082224642897],[-75.800293877906711,44.980731292759934],[-75.801556679516565,44.980367495777195],[-75.80341057997444,44.980214027674329],[-75.805155353619739,44.979991430380309],[-75.806074056997403,44.979582832597529],[-75.807009161901178,44.978971378599951],[-75.808872133744558,44.977641509007434],[-75.810098753596151,44.976683277274226],[-75.810851969986004,44.975838065147649],[-75.811584516363297,44.975011719675365],[-75.812049513381652,44.974183808006018],[-75.81221887234878,44.973555920920369],[-75.81235385407912,44.972737738781085],[-75.81267875670477,44.971351074609899],[-75.813118854260381,44.970036702736493],[-75.814063643351631,44.969213283859446],[-75.81579268464543,44.968626407492472],[-75.817885141578984,44.968349085965762],[-75.818043669248723,44.968315975237672],[-75.819125812730533,44.96808990148439],[-75.82043484984996,44.967695824659238],[-75.820866352387071,44.966765142835698],[-75.82068884080779,44.965886640224383],[-75.820442288301507,44.965184036747125],[-75.819816078067944,44.964092344815704],[-75.819668523647678,44.963276570384593],[-75.819537177014922,44.962266989811958],[-75.81954218537328,44.962213116485017],[-75.820224266781622,44.962733214138638],[-75.820290409185844,44.96278424541088],[-75.823761991548679,44.965477613649973],[-75.82486540509457,44.966401790873888],[-75.824988353513717,44.966719364969364],[-75.825170825426582,44.966808265685422],[-75.825683973919723,44.967110049914893],[-75.82577339555472,44.967154793717938],[-75.827099515818915,44.968238201405441],[-75.828058915249926,44.969022101218378],[-75.829977011584575,44.970649009016377],[-75.830569708563502,44.971151692441701],[-75.830748414532465,44.971295201226773],[-75.832127290141827,44.972402689536523],[-75.833044413695376,44.973128096061863],[-75.834049187798129,44.973952793467802],[-75.836511695777148,44.975911004456883],[-75.836683315457677,44.976055498444708],[-75.836899401479599,44.97623640069002],[-75.837717697625948,44.976880987200929],[-75.838207487153596,44.977288796484522],[-75.838421594629253,44.977416003810873],[-75.838735508785064,44.977687804037842],[-75.838797711012589,44.977787199195546],[-75.838809809437336,44.977841199200199],[-75.838786671874189,44.977878637328608],[-75.845502374434005,44.98297312690071],[-75.86082825309019,44.995420560918944],[-75.866668459655799,45.000084030101775],[-75.875376398213348,45.007035135776086],[-75.87643136809416,45.007892982249025],[-75.89014015397116,45.019414115072223],[-75.890143567502989,45.019417084392124],[-75.891647383599974,45.020913684962359],[-75.896849409092184,45.025669708768532],[-75.896874801026627,45.02566989207083],[-75.897178803617265,45.025725500079517],[-75.897520216925969,45.025844291463649],[-75.897621313883363,45.025880811682093],[-75.897820404476107,45.025984203710529],[-75.897961590381541,45.026082098984709],[-75.898283708279166,45.02638558927945],[-75.899249887931632,45.027296202003512],[-75.899985205500499,45.027972094206419],[-75.900431108482465,45.028339697488718],[-75.906913592936789,45.033685810153329],[-75.908353116155993,45.034872802042457],[-75.911462911131878,45.03732801305879],[-75.911479215499071,45.037328105378876],[-75.915570813269468,45.040707010972341],[-75.918881486715378,45.043650997558544],[-75.920273198969682,45.044909099658021],[-75.921753353290839,45.046218736404256],[-75.921896395220472,45.04634530467353],[-75.921921985808055,45.046363099303043],[-75.921947893115345,45.046389900191123],[-75.921953516647363,45.046394912744027],[-75.92238218880469,45.046776907210173],[-75.92348098983274,45.047745792014219],[-75.924743887455293,45.04890142245727],[-75.924963197762693,45.049102093178114],[-75.925336588657999,45.04941410830741],[-75.926160801179165,45.050118607922066],[-75.926173710849199,45.050127499102132],[-75.926353886118562,45.05027900704156],[-75.939667305057412,45.06134150502902],[-75.948516585778904,45.068551308409575],[-75.950860204326688,45.070488389830039],[-75.950872310951695,45.070498513655004],[-75.9509669012443,45.070577815999563],[-75.952371987073747,45.071755606438003],[-75.953127905482745,45.072398103608776],[-75.952385607644104,45.072854202336721],[-75.949554686364891,45.074569406728365],[-75.947781097921279,45.075681893883846],[-75.946648713582618,45.076366210680121],[-75.941251094270598,45.079694987676454],[-75.941088201141042,45.079840391316964],[-75.941064296393307,45.079930590210054],[-75.941058494946816,45.079939010320537],[-75.941051905032893,45.079948696519224],[-75.941052183197797,45.079966698027057],[-75.941052287714029,45.079975692518339],[-75.941052600445559,45.079993700291581],[-75.941131406843581,45.080155110716625],[-75.941789314440442,45.080762100135679],[-75.94261421036083,45.081484813240948],[-75.947614709424755,45.085802613738387],[-75.950876495942126,45.088666607922697],[-75.951065302657042,45.088847504757666],[-75.952174004757779,45.089806708841977],[-75.952682787804278,45.090254207455516],[-75.960820315686604,45.097101199561486],[-75.9634432285158,45.099299393015407],[-75.964123481584764,45.099861129899004],[-75.964235696756006,45.099953802936724],[-75.964617049156573,45.100268763550076],[-75.964897678751171,45.100500564713876],[-75.965310835136719,45.100841781091155],[-75.96538451542051,45.100875300278176],[-75.966014680434142,45.1014272038122],[-75.970610332099753,45.105266131414574],[-75.970629700621345,45.105282313044462],[-75.970852014632385,45.105396390109647],[-75.970895299116179,45.10541859063752],[-75.971110601114574,45.105491609694965],[-75.971338888882769,45.105537596203298],[-75.971542196525917,45.105547600456028],[-75.971589893356295,45.105880696715047],[-75.971656103025836,45.106077888389741],[-75.971738306001512,45.106322404884082],[-75.971987892598548,45.106818510395172],[-75.972627299400216,45.107766294968329],[-75.972818284487502,45.107791705504859],[-75.973186601572706,45.107779707774299],[-75.973403011515131,45.107804806630597],[-75.973620192066818,45.107875104442904],[-75.973799496573704,45.107954603192937],[-75.979265104694292,45.112552195480248],[-75.980656705377541,45.113683389809623],[-75.982075087262544,45.114886291191887],[-75.984549484683328,45.116908208382107],[-75.986496593744306,45.118547499502569],[-75.987080312131525,45.119028699361351],[-75.987673099868502,45.119482700215684],[-75.987828416035399,45.119634306436701],[-75.989388813213409,45.120881111876294],[-75.99235638688576,45.123330791187676],[-75.992356605572525,45.123339806131526],[-75.997620897421811,45.127650793388241],[-75.99816989869106,45.128111494968898],[-75.999992495798494,45.129609305994933],[-76.00004419142364,45.129654008598173],[-76.000883383917497,45.13036680188597],[-76.002264302602043,45.131498108627675],[-76.003889413135155,45.132771201496887],[-76.00635628195316,45.13488310065992],[-76.006963690299585,45.135427001983963],[-76.008925995200599,45.137057199359646],[-76.009417386639285,45.137502993319153],[-76.009491986124118,45.137555808017019],[-76.009820385994189,45.137809104512854],[-76.010966690855895,45.138769093585196],[-76.012566384737326,45.140041992803035],[-76.013302693672273,45.140683498322588],[-76.014735283387637,45.141858902020651],[-76.016499997279723,45.143309110089739],[-76.017194516512518,45.143887890288831],[-76.018545779638472,45.144991506423317],[-76.019770610732039,45.146022601811389],[-76.020553801841814,45.146682411092058],[-76.021993099471516,45.147894693823119],[-76.023458416573803,45.149070692352048],[-76.025605397501536,45.150870500727486],[-76.027437001055404,45.152380889805286],[-76.028220099927978,45.15303208889771],[-76.029230083507741,45.153936195016286],[-76.030000512556668,45.154596313509799],[-76.030607083958998,45.155066693986214],[-76.031339179780034,45.155674320025554],[-76.031856632541505,45.156103793535756],[-76.032034591988136,45.156251492448519],[-76.032059811524917,45.156278597695547],[-76.032085098997513,45.156296687566346],[-76.03208734225241,45.156298552175386],[-76.032325088387793,45.156495593222282],[-76.032350420955169,45.156522692601087],[-76.032354141930625,45.156525370912007],[-76.032375699876255,45.156540806917725],[-76.03247661286558,45.156640206026445],[-76.032691487411029,45.156803100913017],[-76.032830508425022,45.156911597537366],[-76.035245837152019,45.15891949003472],[-76.036355303769767,45.159841693442132],[-76.038667487845458,45.161729110567926],[-76.039025792942809,45.162021587874968],[-76.039051715627579,45.162048295114531],[-76.039077513466879,45.162066108876708],[-76.04178881487762,45.16431819948285],[-76.045314900510746,45.167203006150821],[-76.045904702764986,45.167689910806729],[-76.047651809976628,45.169128689695128],[-76.04913170394228,45.170347407248265],[-76.050152286975475,45.171187906243986],[-76.050493001292622,45.171460309140713],[-76.051558711158222,45.17235710864351],[-76.052292796391001,45.172925391830553],[-76.052633598489649,45.173189189762105],[-76.05297490064946,45.173469487131563],[-76.053265693249685,45.173704707276926],[-76.053796604275078,45.174147702882522],[-76.053821890406553,45.174174785941688],[-76.053859909006562,45.174192909904804],[-76.053860254481052,45.17419318066618],[-76.054453998507256,45.174681189070725],[-76.054643507453463,45.174852897706018],[-76.055111011352395,45.175268713502433],[-76.062013702122044,45.181027796811712],[-76.063505499076939,45.1822932944497],[-76.064226411864823,45.182863000062838],[-76.065364311377138,45.183821300093399],[-76.065402185353221,45.183866396011254],[-76.067413096420978,45.185502800149493],[-76.068728303806779,45.186587713180884],[-76.074914116958354,45.191543594453641],[-76.07500271209409,45.191614709957079],[-76.075180390758462,45.19167828550119],[-76.079658507195688,45.19537550214794],[-76.080177193042203,45.195800395892974],[-76.081796608630114,45.197129089210662],[-76.082859200288567,45.19801490222769],[-76.085288617880849,45.199994592134964],[-76.087401600765531,45.201756994520991],[-76.089034116461164,45.203076800124116],[-76.090539887454398,45.204332991808137],[-76.091628298519538,45.205218803566083],[-76.092299316104842,45.20573409275206],[-76.094210589543437,45.207261809558126],[-76.098819594156794,45.210778708885513],[-76.09923334610879,45.211090496990849],[-76.100871297221943,45.212324711131849],[-76.104517910190182,45.215207993337181],[-76.10616369452606,45.21656360391696],[-76.110973304327601,45.220755588145266],[-76.11348068956471,45.222788785892824],[-76.115519798574582,45.224424487046072],[-76.115545218596964,45.224442595946705],[-76.115583183934064,45.224469703763603],[-76.116038985089418,45.224849198999088],[-76.117232608856852,45.22579519911244],[-76.120514087377401,45.228390108813421],[-76.125341418622511,45.232277397947456],[-76.127092594785154,45.233686309141483],[-76.127136081071058,45.233723005979108],[-76.127212114188524,45.233786202251075],[-76.129270290218656,45.235442300955107],[-76.132939089319223,45.238394198679856],[-76.134789414976439,45.239848990118539],[-76.136612788251384,45.241286087861681],[-76.139833792130858,45.243824490793116],[-76.14094931233646,45.244700891827634],[-76.143636335190465,45.246901393034911],[-76.144523283039533,45.247627696427102],[-76.144587002892251,45.247680199200644],[-76.146411808754195,45.249181396521884],[-76.146500406558957,45.24927170103463],[-76.147704510971252,45.250274299144074],[-76.147729811242854,45.250292296545851],[-76.147755109876798,45.250319399203413],[-76.148371389436122,45.25086670484167],[-76.150124602991752,45.252423402839455],[-76.150149905131101,45.252441504042714],[-76.150175206435208,45.25246860628441],[-76.152608305099236,45.254608694797192],[-76.152722492185248,45.254690086940847],[-76.153264488889107,45.25511169275191],[-76.154402410305451,45.256074389440634],[-76.155674004632331,45.257172905438537],[-76.156849112537969,45.258076305837342],[-76.157896403145301,45.259012212926891],[-76.158384697843232,45.259426903562428],[-76.159195014911518,45.260112891411552],[-76.159967005345663,45.260742996554953],[-76.161328891960537,45.261954408096813],[-76.162770011973237,45.263246999685038],[-76.163490484413828,45.263868000000471],[-76.164646299226732,45.264946004554751],[-76.165927383516888,45.265954207326772],[-76.166357711733752,45.266270497627865],[-76.166928190497075,45.266814887748346],[-76.166927607568056,45.266818488864978],[-76.167137698552423,45.266965396795563],[-76.167386906689671,45.267183889709834],[-76.16759109518091,45.267366298713043],[-76.167574398313036,45.267498111032786],[-76.1675608505155,45.267538462825684],[-76.177390314038817,45.27556360134875],[-76.17990615417952,45.27776058509987],[-76.180207564595293,45.278023792708574],[-76.187299990970871,45.284067581859084],[-76.191756853312825,45.287864488293302],[-76.204877663296756,45.298305768416093],[-76.210198526760195,45.302538200400825],[-76.210734484459991,45.302964492005607],[-76.213644015464766,45.301255430338877],[-76.214449592667037,45.300782202428032],[-76.215833681628695,45.301928505204579],[-76.216989310017553,45.302894296049082],[-76.217204994866265,45.303110789312178],[-76.229733755420582,45.313326907679823],[-76.246379200529375,45.325665289751591],[-76.255874807085831,45.333021097118909],[-76.257068690934076,45.333917107278545],[-76.257431695409224,45.334174107989625],[-76.257976996213415,45.334591196058824],[-76.258365809347751,45.334857003210352],[-76.258950493566061,45.335327608896755],[-76.262145087399531,45.33780368775696],[-76.265403207902153,45.34025209147331],[-76.266299312983037,45.340944214391705],[-76.26812771271328,45.342298314333377],[-76.272160394936833,45.345249572814438],[-76.27360518720225,45.346306810278875],[-76.273621079238865,45.346318849354233],[-76.275061091223421,45.34741956403078],[-76.279827001439202,45.351062081264402],[-76.28001754449771,45.351226201285279],[-76.280225368535682,45.351404925136265],[-76.280385228953023,45.351542371740642],[-76.280532389323085,45.351670873906102],[-76.281868302226272,45.352817896231777],[-76.282071990080169,45.352962309149191],[-76.283878980189385,45.354351508010481],[-76.285393386742442,45.355497210140676],[-76.287849696462686,45.357373499996136],[-76.289313408302078,45.358474102538374],[-76.290853389336064,45.359691708549811],[-76.292635411407431,45.361044791003124],[-76.294723011434925,45.362650310403062],[-76.296186697462645,45.363813792888116],[-76.296231582734805,45.363826132115413],[-76.296867295448948,45.364320168831668],[-76.297518609358207,45.364781283759655],[-76.297752483247592,45.365022405909812],[-76.300120506886557,45.366826311608683],[-76.305187997787016,45.370695590181796],[-76.306855885066554,45.372012203711677],[-76.307378008268216,45.372400014185004],[-76.308180210463419,45.373022296324294],[-76.309491814015061,45.374041395888646],[-76.313029206618694,45.3768002015928],[-76.313261184630136,45.376981195224097],[-76.313369806604598,45.377060613106373],[-76.315834186563933,45.378866107626372],[-76.315859687890992,45.378884104975555],[-76.315885186897788,45.378911206717881],[-76.316522006885364,45.379389108855378],[-76.317770491103047,45.380282009625518],[-76.317795994013011,45.380300006542392],[-76.317821390445431,45.380327089531441],[-76.318203390370527,45.380669602211455],[-76.318228893753314,45.380687703404227],[-76.318254281895406,45.380714706512116],[-76.320313991020512,45.38236349255304],[-76.32128569920836,45.383131193746713],[-76.321291278315712,45.383135409168418],[-76.321413107269066,45.383221309576257],[-76.324687108955274,45.385710097985765],[-76.326470584728696,45.387089592114627],[-76.330802707321268,45.390380607567543],[-76.331936682570188,45.391246205146246],[-76.332331681081925,45.39156170333586],[-76.33403910987326,45.392887004496366],[-76.334096556757729,45.392915325473609],[-76.335291161410822,45.393504152603846],[-76.335294396740039,45.393506311916731],[-76.336411956781347,45.394501481880454],[-76.336782446430391,45.394761520181426],[-76.337493496337629,45.395222700965824],[-76.337480307380474,45.395366609364302],[-76.337544191552766,45.395535497779171],[-76.337687901444554,45.395668803057276],[-76.340207208035764,45.397620189840573],[-76.34326538730673,45.399954006698309],[-76.343487216328739,45.400100012982605],[-76.343491579219986,45.400104013259131],[-76.353702475438993,45.410354751250999],[-76.353826040401017,45.410454855970549],[-76.353971106892402,45.4105576333762],[-76.352769488626137,45.41143249578252],[-76.352468486432883,45.411670098301578],[-76.352465521719594,45.411675344164351],[-76.352291093750679,45.411814056984376],[-76.348344877460818,45.414348554057867],[-76.348203556455147,45.414433142411937],[-76.344831423437725,45.416451299444013],[-76.343872589132317,45.417025069265705],[-76.340416086001056,45.419099741278416],[-76.339908575637438,45.41942592542388],[-76.339896097885415,45.419453453889517],[-76.339758252564323,45.419674552299703],[-76.339619304880657,45.419822821182628],[-76.339517661945678,45.41993988059761],[-76.339354702444624,45.420111411103576],[-76.339148613523349,45.42018030140121],[-76.338998302290747,45.420308000317426],[-76.338608714081943,45.420591598207679],[-76.337198413791938,45.421490290951837],[-76.335788417503721,45.422406901148101],[-76.333080197584408,45.424070309870686],[-76.33041384184493,45.425792147156486],[-76.330254489455072,45.425921699876497],[-76.330142387552698,45.426030295644296],[-76.330035514207083,45.426153011800068],[-76.329994835979122,45.426215173977532],[-76.329931911688988,45.42631139633658],[-76.329796204308735,45.426292901769578],[-76.329690997081869,45.42628800521021],[-76.329524795254116,45.426365396902028],[-76.32832670875392,45.427136403547443],[-76.328137810207579,45.427267109770057],[-76.327992811007448,45.427389996101645],[-76.322961729219273,45.430450907750419],[-76.322850415854575,45.430526318652504],[-76.315390755012814,45.435502333231369],[-76.315272178481649,45.435579961927822],[-76.315167698394689,45.43564751489523],[-76.314423338062497,45.436128278030907],[-76.314504368196609,45.437639803559627],[-76.313846311025273,45.438370382748573],[-76.31301430531137,45.43853529052452],[-76.312288680802041,45.438440204766557],[-76.312275472432063,45.43843668399434],[-76.311599518972429,45.438256478037694],[-76.311198052969416,45.438804807148728],[-76.30317185324057,45.443537717286191],[-76.300001883462372,45.445600890022405],[-76.297394273288063,45.447297853812941],[-76.296874530913797,45.455070401603606],[-76.296344891120924,45.463987203770685],[-76.296216814867194,45.464531562814877],[-76.295985553176564,45.464594868732789],[-76.291255755100821,45.465889512623143],[-76.286132830937717,45.466221855207586],[-76.286122313557826,45.466222223889801],[-76.283512383191791,45.466317955257345],[-76.277194302407679,45.466549380154625],[-76.261764526348713,45.468113827915978],[-76.245083932152298,45.468608941195654],[-76.243478240136568,45.469462605683283],[-76.242432046475372,45.470018757754495],[-76.242318025203417,45.470079366094012],[-76.240205571457452,45.471202312544413],[-76.240201765268736,45.471211431139444],[-76.238612498795632,45.475026143478409],[-76.238517624396181,45.475253901979158],[-76.238498913916416,45.475375003355403],[-76.238283001847918,45.476772804793889],[-76.237908914085097,45.47919428848607],[-76.236876725669731,45.485874836852261],[-76.236754234451013,45.486667489046638],[-76.236667773135082,45.487226975517231],[-76.236545978009204,45.488015056675202],[-76.235459172374931,45.495046375742881],[-76.234836559322531,45.499073692961929],[-76.234691208771963,45.500013760241117],[-76.23469025862741,45.500019859238009],[-76.23348268242772,45.507828729588475],[-76.227941291657288,45.5117477444076],[-76.227815960384163,45.511836350153963],[-76.223367421616132,45.513081608159354],[-76.212116861566955,45.516229721767395],[-76.210345777268273,45.516725130762602],[-76.201006389007318,45.518879135151053],[-76.19239725089777,45.519184099101842],[-76.188020913655379,45.518878042906842],[-76.175960749034857,45.518033519232318],[-76.166202898933022,45.517349000002376],[-76.165005293740776,45.517343113570277],[-76.155519235643581,45.517296004337837],[-76.153960273873139,45.517288159589732],[-76.144149413347691,45.517934378892576],[-76.140399360962604,45.51818110293032],[-76.1169113102316,45.51684963609997],[-76.105605973618708,45.516206554903363],[-76.089877186838038,45.513852445387215],[-76.088782274517001,45.513453901626789],[-76.073792335055828,45.507995507297316],[-76.072942217728254,45.507685831861174],[-76.067621297550062,45.506042824279419],[-76.065014850498642,45.505239582195351],[-76.058852786891208,45.503340179168703],[-76.05491650915269,45.502126557093945],[-76.053863365744689,45.501801826753528],[-76.053858621436603,45.50180035271498],[-76.050761777097009,45.500845349611275],[-76.049406921509444,45.500427490572108],[-76.048195256892228,45.50005375807438],[-76.048175788528482,45.500045212045421],[-76.044292073880413,45.498339222475558],[-76.039176575497848,45.496091739437183],[-76.028284711500433,45.491304752200911],[-76.025953955105535,45.490280103558419],[-76.023238204624477,45.489086050939441],[-76.020557270578792,45.48839303478389],[-76.020090522778091,45.488272376412183],[-76.011754044205958,45.486116700907836],[-76.010203666684305,45.485715704887291],[-76.005554209296292,45.484512910279541],[-76.000003076599612,45.483076468501068],[-76.000000016824742,45.483075684967126],[-75.999169737863198,45.482860797303111],[-75.999053574265346,45.482830727415561],[-75.991072741230028,45.480764749279828],[-75.989846158529488,45.480413439609173],[-75.98716460661818,45.479645308637764],[-75.981016292346112,45.476338877091663],[-75.979997844697635,45.475791087300244],[-75.974285927131803,45.472718465403844],[-75.969585109550721,45.47018916933844],[-75.969048008525192,45.469900138295543],[-75.967150880121807,45.468440865025386],[-75.9663169738661,45.467799379380494],[-75.965369873698293,45.467182577030357],[-75.957613271275932,45.462130064948013],[-75.95474415048453,45.460260748888537],[-75.953056820459892,45.458317517715102],[-75.944480157626359,45.44843740054079],[-75.943191010059152,45.44695191810446],[-75.937984250018133,45.440433095007769],[-75.937477964999161,45.439799106020629],[-75.936931557368041,45.439114870025826],[-75.931117801276599,45.431833250833805],[-75.930095219465855,45.430552233865605],[-75.929762247581948,45.430135079209329],[-75.928735736565855,45.428849048543576],[-75.926441793010142,45.426787849418602],[-75.916740489216693,45.418068295662202],[-75.91650208811356,45.417853977822716],[-75.915974619102144,45.417379793819165],[-75.90555055532721,45.41022239140964],[-75.904286225985189,45.409354037155822],[-75.89636735120105,45.402637608237058],[-75.895547521518907,45.401942158400701],[-75.895185098222782,45.401634686952924],[-75.888641692509538,45.397783999796523],[-75.883980092830825,45.39504005318954],[-75.879281018314842,45.392602430320359],[-75.877778629096625,45.392076852909106],[-75.876738999964388,45.391660676563134],[-75.874871882689462,45.390852847576227],[-75.867720344676442,45.38753009434668],[-75.86496964702205,45.386251803845049],[-75.863159290996052,45.385429254744963],[-75.857135978099024,45.382692072870142],[-75.848379150523627,45.37864862934326],[-75.847908896563752,45.378431442938364],[-75.846657180275628,45.377853325001297],[-75.845173552529573,45.377168067789029],[-75.844104841352177,45.376674430975193],[-75.842590326650722,45.375974814448533],[-75.834507127698302,45.374199618696068],[-75.829795726599798,45.373164509307358],[-75.817825325525519,45.372698709368059],[-75.808530122356558,45.375005263594169],[-75.804455150044831,45.376016092699821],[-75.804450870483308,45.376017144307077],[-75.804449193434181,45.376017571274197],[-75.804446337401913,45.376018280515339],[-75.804443891937964,45.376018881433566],[-75.804434633949938,45.376021171246506],[-75.80429715165431,45.376055274003434],[-75.803318334225011,45.376360351514066],[-75.801658364437856,45.376877683704564],[-75.801060742017796,45.377063936859557],[-75.797033971285131,45.378318683701679],[-75.797018683357123,45.378323457340656],[-75.797016804201107,45.378324030427386],[-75.797001620188809,45.378332064614305],[-75.795207119479826,45.379282928817339],[-75.795190585089728,45.379291710558768],[-75.79339148583378,45.380244961736636],[-75.79159894367865,45.381194656508178],[-75.791579341295687,45.381205023305199],[-75.788015328155439,45.383772902132378],[-75.786315740874414,45.384997333867595],[-75.782059330863319,45.388063322608005],[-75.779713217179932,45.389753032497318],[-75.778945981102382,45.39030553980357],[-75.778918237913246,45.390325534863436],[-75.778754237362719,45.390467732253271],[-75.778728990873006,45.390489620004139],[-75.772510893070148,45.395880112980322],[-75.772480403088593,45.395906562416705],[-75.769086153958511,45.399282467014537],[-75.766301409919706,45.402051762265202],[-75.762387775176521,45.406640836260934],[-75.759672963899817,45.409823592141358],[-75.759658485885126,45.4098405655755],[-75.759654048742064,45.409845771269183],[-75.759637811817868,45.409864803739183],[-75.759617546610002,45.409879440941225],[-75.759003758794549,45.41032319416739],[-75.758223362111949,45.410887409386419],[-75.758078529588971,45.411004415391055],[-75.75640630825842,45.412355334022337],[-75.756394804538274,45.412364612300848],[-75.756366348571163,45.412387588715362],[-75.756358946059748,45.41239358748858],[-75.756349488561227,45.412395681284139],[-75.753541756617253,45.412980838648714],[-75.753098384956715,45.41304601990926],[-75.751123929923622,45.413336238366547],[-75.747413402543444,45.413407720405665],[-75.744458075626227,45.413792816341342],[-75.744387408017005,45.413802021788662],[-75.744376798660412,45.413803407458218],[-75.744363185488012,45.413805186564012],[-75.741932909966081,45.414121792191985],[-75.739082693664685,45.414997182951709],[-75.73906937414452,45.415001290257138],[-75.73903923510538,45.415010539870586],[-75.739002523914223,45.415021806809008],[-75.738982576508491,45.415026064418271],[-75.738917743223041,45.415039887777318],[-75.73300587998385,45.416300503296291],[-75.732641871442382,45.41639617054345],[-75.732594995649919,45.416408508831353],[-75.732565150707018,45.416416345852078],[-75.732554628035871,45.416419106144126],[-75.732544971405673,45.416421632250845],[-75.731255125529003,45.416760644288466],[-75.731117326022783,45.416784521471477],[-75.729620042986312,45.416979400050344],[-75.728747394740296,45.416913593525535],[-75.728722654208184,45.416911900015904],[-75.728626593120993,45.416905315699132],[-75.722756208196202,45.416502516399099],[-75.722480755719729,45.416546297213266],[-75.722190138741908,45.41664788115164],[-75.722098704265363,45.416679850076001],[-75.721796227953604,45.416785595882409],[-75.721467398268715,45.417194055110826],[-75.721401145945549,45.417388731123218],[-75.721308511933657,45.417660870766554],[-75.721400276818471,45.418949739295904],[-75.721592291469349,45.418966459550184],[-75.721889291693117,45.419034112085335],[-75.721976800811902,45.419054048967112],[-75.722264878112398,45.419160244061651],[-75.72264528875337,45.419355860101142],[-75.722787090600136,45.419453952959735],[-75.723020069559723,45.419686451733412],[-75.723111183810616,45.419811953636547],[-75.72325508257768,45.420072040540582],[-75.723322386078408,45.420341544050501],[-75.723336974588676,45.420485551031014],[-75.723302286554755,45.420764749719844],[-75.72319069258144,45.421035445076541],[-75.723014896466211,45.421288554018219],[-75.722901388780201,45.421406337056546],[-75.722635574194939,45.421615042058754],[-75.722432479076161,45.421724358229582],[-75.722148566593305,45.421771255160422],[-75.72149026459239,45.421805256316077],[-75.720587897750036,45.421762752396923],[-75.720193376035752,45.421686146648909],[-75.718361766609547,45.421307353604931],[-75.715408276364258,45.421958467189476],[-75.71371956535279,45.422254602084585],[-75.713637303241342,45.422270901334706],[-75.713485795494051,45.422300935301728],[-75.711143174448992,45.42276522299283],[-75.708308500518399,45.423326934233174],[-75.706873924223402,45.423856503620463],[-75.704686360408431,45.424663944598997],[-75.704411910710974,45.425238370660885],[-75.703744556334172,45.42663520039924],[-75.703777261885293,45.429754307173553],[-75.7037773886954,45.429926791858961],[-75.703776176918069,45.429987283640564],[-75.703727712151917,45.432363232882082],[-75.702714081265242,45.436846374100753],[-75.702684619090135,45.436987765917195],[-75.702573434503336,45.437589449467517],[-75.701493559922341,45.440569055315834],[-75.699585220379333,45.444257597633118],[-75.696072424235211,45.449494941601223],[-75.692441270315655,45.452969539579975],[-75.688885491218002,45.455815796275992],[-75.683177193085797,45.459136501419046],[-75.677590960343039,45.460838236388575],[-75.677565558748441,45.460849520112937],[-75.677539184075357,45.460854686286972],[-75.673048126084865,45.461735104254636],[-75.664925432447632,45.463361067248265],[-75.664853168117645,45.463369649429666],[-75.664794323331947,45.463376634569777],[-75.658090120931305,45.464172130512722],[-75.652813455566346,45.46479785330348],[-75.651751653778419,45.464919313136853],[-75.646435366531378,45.465307227280725],[-75.643156393908697,45.465546303282167],[-75.639421232089404,45.46585694346129],[-75.639418989943792,45.465857474087841],[-75.639253398065605,45.465897062014605],[-75.627338349786143,45.468745397034319],[-75.627102479932574,45.468820948086652],[-75.618971407519709,45.471428684666748],[-75.599557292638934,45.472466787984374],[-75.591266299992327,45.472790983298765],[-75.575556797657001,45.474825106006271],[-75.570252683283172,45.476693362559757],[-75.569492821849963,45.477041985955701],[-75.567219668073577,45.478128313604607],[-75.563691126683707,45.480747747165324],[-75.563425175014885,45.48087875030626],[-75.562850747036492,45.481161686200089],[-75.561959521751263,45.48160067226187],[-75.557372688286748,45.483859680143638],[-75.556152958587191,45.484460321151097],[-75.552896084788671,45.485282306982718],[-75.549799781831666,45.486063635216752],[-75.548625010923743,45.486360054595536],[-75.544035035736982,45.488695882498448],[-75.542436251593628,45.489565982595408],[-75.538953399952149,45.491073228885028],[-75.538549913997883,45.491247842954962],[-75.52745152933494,45.496049232945737],[-75.525568542436133,45.496781644078283],[-75.520402305292819,45.498819355962048],[-75.516691471006197,45.500015006376337],[-75.516671320715361,45.500021494280382],[-75.511689434025357,45.501626378876281],[-75.500000012491043,45.505932465952533],[-75.49999310092916,45.505935010701016],[-75.49366921834384,45.508263631886742],[-75.491231245041604,45.509217571759784],[-75.490598727974898,45.509427017955652],[-75.484156298981162,45.511504934547339],[-75.482457597887006,45.512052728790763],[-75.481783148768372,45.51227021046472],[-75.47794127977933,45.513508936501886],[-75.475475155188136,45.513986035004855],[-75.473754074979283,45.514383353132985],[-75.472601818615786,45.514649331643923],[-75.468803490039335,45.515391871146718],[-75.46525465918414,45.51674441773298],[-75.465177235520486,45.516773911817488],[-75.461252940039074,45.518269280334515],[-75.459607159078459,45.518794853537578],[-75.456886256231783,45.519411066399812],[-75.452615403254995,45.520083041621426],[-75.445408439636552,45.521110481836985],[-75.443885168033844,45.520943260966334],[-75.442154324243774,45.520694012294726],[-75.439350163436913,45.520372893669844],[-75.435051678090829,45.520220240343889],[-75.434706340786377,45.52021047897091],[-75.434703100431307,45.520210374811704],[-75.432645537798791,45.520152080838116],[-75.431075970581162,45.520107596840397],[-75.430717000615232,45.520097409027379],[-75.423561608653273,45.51989422085898],[-75.423428122734208,45.51990330866758],[-75.423207592101164,45.51991830108274],[-75.423052159182433,45.519928862757759],[-75.422747412175909,45.519950363060758],[-75.422242538929467,45.519986008559805],[-75.42214516940912,45.519993896634205],[-75.422060684797572,45.520000721710431],[-75.421834198272677,45.520019057590432],[-75.420738271972894,45.520098286025537],[-75.418294219221124,45.520668198877232],[-75.416687744958466,45.5213724976701],[-75.416211661116805,45.522437079536246],[-75.415347222203096,45.523074115391175],[-75.414248078989729,45.523567778464837],[-75.413699719957748,45.523725409984436],[-75.412858369225773,45.523967248611036],[-75.411433339520343,45.524235206663576],[-75.410259698218852,45.52433784107933],[-75.409073895770348,45.524247532873865],[-75.407410561570131,45.523675782733918],[-75.406647976095172,45.523431674664167],[-75.404905146824149,45.523430077060361],[-75.397090475437395,45.523422547969908],[-75.393602994393902,45.52393066603743],[-75.392827639863881,45.523955983477819],[-75.391041940933533,45.524177852501005],[-75.388670070714568,45.524849361884186],[-75.38743430319559,45.525463112020297],[-75.385791819423559,45.526278811802385],[-75.384775886241599,45.526699578158699],[-75.384429809808893,45.52684291941052],[-75.383361187072879,45.527220735859188],[-75.376387562023268,45.528992906502069],[-75.3755505057036,45.529220349648405],[-75.375141079511664,45.529271064622108],[-75.37404807075815,45.529506753513985],[-75.347526029745737,45.53622725909112],[-75.345284435724309,45.536804187467851],[-75.345269447452807,45.536805162448928],[-75.343916511612861,45.536892994315892],[-75.342764906115576,45.536967749689978],[-75.342514403137471,45.536983993051223],[-75.340275320523389,45.533037813252577],[-75.340265606390133,45.533020508411411],[-75.340073533240385,45.532678729413213],[-75.339691750961151,45.531996240843675],[-75.339575621751891,45.531812279047152],[-75.33953377516319,45.531741111567669],[-75.339509570336475,45.53170010521481],[-75.339397975565859,45.531510962175489],[-75.33937129422857,45.531465954753969],[-75.338927578341512,45.530717453109084],[-75.338838120652383,45.530495332977658],[-75.338811769002078,45.53042983868351],[-75.338766649399659,45.530317644096868],[-75.338554590388355,45.529916772610044],[-75.338291846213707,45.529438546668096],[-75.338244583352804,45.529354205220613],[-75.337641829558251,45.528278630985838],[-75.337610264411836,45.528230377686121],[-75.337551140751586,45.528140333461778],[-75.337412231698181,45.527928811253197],[-75.337381576305916,45.527877661371612],[-75.337325380971734,45.527785595700365],[-75.336587375790629,45.52657659713887],[-75.336523989759982,45.526475062077402],[-75.33648002062354,45.526404701973526],[-75.335636600835016,45.525055088782722],[-75.33542620241488,45.524702011055879],[-75.333611211165305,45.521471098281253],[-75.331365491982837,45.517407805484602],[-75.331353103380721,45.517389606388221],[-75.331340913259794,45.517362507185972],[-75.330846086834185,45.516529604612053],[-75.330833897254948,45.516502505445793],[-75.330821506892846,45.516484410769081],[-75.330044692069848,45.515054598355448],[-75.327550815775652,45.510646803453028],[-75.327450602131165,45.510537795752974],[-75.327186396898199,45.510319092929052],[-75.325985195147339,45.509613903178483],[-75.325945461222162,45.509587599657472],[-75.325543395504724,45.509321398783797],[-75.32535389482139,45.509202497814869],[-75.325079104327784,45.508875687966544]]]]}}
]
}
